<?xml version="1.0" encoding="UTF-8"?>
<gpx version="1.1" creator="osscycler demo" xmlns="http://www.topografix.com/GPX/1/1">
  <metadata>
    <name>Posbank Loop</name>
    <desc>Route along OpenStreetMap roads (map data © OpenStreetMap contributors, ODbL); elevation from AHN (Actueel Hoogtebestand Nederland, CC0).</desc>
    <copyright author="OpenStreetMap contributors"><license>https://opendatacommons.org/licenses/odbl/</license></copyright>
  </metadata>
  <trk><name>Posbank Loop</name><trkseg>
    <trkpt lat="52.010941" lon="6.031457"><ele>24.2</ele></trkpt>
    <trkpt lat="52.010961" lon="6.031539"><ele>24.3</ele></trkpt>
    <trkpt lat="52.010973" lon="6.031600"><ele>24.3</ele></trkpt>
    <trkpt lat="52.011031" lon="6.031778"><ele>24.3</ele></trkpt>
    <trkpt lat="52.011602" lon="6.033945"><ele>23.2</ele></trkpt>
    <trkpt lat="52.012239" lon="6.036444"><ele>22.1</ele></trkpt>
    <trkpt lat="52.012270" lon="6.036573"><ele>22.1</ele></trkpt>
    <trkpt lat="52.012314" lon="6.036760"><ele>22.1</ele></trkpt>
    <trkpt lat="52.012394" lon="6.037020"><ele>22.1</ele></trkpt>
    <trkpt lat="52.012513" lon="6.037487"><ele>22.1</ele></trkpt>
    <trkpt lat="52.012909" lon="6.038961"><ele>21.7</ele></trkpt>
    <trkpt lat="52.012976" lon="6.039220"><ele>21.5</ele></trkpt>
    <trkpt lat="52.013202" lon="6.040108"><ele>21.1</ele></trkpt>
    <trkpt lat="52.013610" lon="6.041668"><ele>20.5</ele></trkpt>
    <trkpt lat="52.013634" lon="6.041752"><ele>20.5</ele></trkpt>
    <trkpt lat="52.013919" lon="6.042835"><ele>20.4</ele></trkpt>
    <trkpt lat="52.014019" lon="6.043254"><ele>20.5</ele></trkpt>
    <trkpt lat="52.014097" lon="6.043565"><ele>20.4</ele></trkpt>
    <trkpt lat="52.014300" lon="6.044298"><ele>20.4</ele></trkpt>
    <trkpt lat="52.014726" lon="6.045921"><ele>21.1</ele></trkpt>
    <trkpt lat="52.014888" lon="6.046573"><ele>21.2</ele></trkpt>
    <trkpt lat="52.015023" lon="6.047007"><ele>21.3</ele></trkpt>
    <trkpt lat="52.015164" lon="6.047434"><ele>21.3</ele></trkpt>
    <trkpt lat="52.015224" lon="6.047577"><ele>21.2</ele></trkpt>
    <trkpt lat="52.015272" lon="6.047678"><ele>21.2</ele></trkpt>
    <trkpt lat="52.015394" lon="6.047921"><ele>21.2</ele></trkpt>
    <trkpt lat="52.015409" lon="6.047995"><ele>21.2</ele></trkpt>
    <trkpt lat="52.015532" lon="6.048185"><ele>21.5</ele></trkpt>
    <trkpt lat="52.015731" lon="6.048534"><ele>21.5</ele></trkpt>
    <trkpt lat="52.015874" lon="6.048836"><ele>21.3</ele></trkpt>
    <trkpt lat="52.016004" lon="6.049160"><ele>21.1</ele></trkpt>
    <trkpt lat="52.016387" lon="6.050277"><ele>19.8</ele></trkpt>
    <trkpt lat="52.016494" lon="6.050620"><ele>19.5</ele></trkpt>
    <trkpt lat="52.016687" lon="6.051364"><ele>18.5</ele></trkpt>
    <trkpt lat="52.016820" lon="6.052026"><ele>17.6</ele></trkpt>
    <trkpt lat="52.016935" lon="6.052694"><ele>16.6</ele></trkpt>
    <trkpt lat="52.016972" lon="6.053082"><ele>16.1</ele></trkpt>
    <trkpt lat="52.016976" lon="6.053300"><ele>15.8</ele></trkpt>
    <trkpt lat="52.016972" lon="6.053483"><ele>15.5</ele></trkpt>
    <trkpt lat="52.016902" lon="6.054704"><ele>15.9</ele></trkpt>
    <trkpt lat="52.016976" lon="6.055185"><ele>15.8</ele></trkpt>
    <trkpt lat="52.017174" lon="6.056070"><ele>15.5</ele></trkpt>
    <trkpt lat="52.017425" lon="6.057072"><ele>15.7</ele></trkpt>
    <trkpt lat="52.017546" lon="6.057536"><ele>16.4</ele></trkpt>
    <trkpt lat="52.017680" lon="6.057996"><ele>16.8</ele></trkpt>
    <trkpt lat="52.017844" lon="6.058384"><ele>17.1</ele></trkpt>
    <trkpt lat="52.017982" lon="6.058646"><ele>17.3</ele></trkpt>
    <trkpt lat="52.018094" lon="6.058759"><ele>17.3</ele></trkpt>
    <trkpt lat="52.018194" lon="6.058922"><ele>17.4</ele></trkpt>
    <trkpt lat="52.018747" lon="6.059817"><ele>18.0</ele></trkpt>
    <trkpt lat="52.018781" lon="6.059869"><ele>18.0</ele></trkpt>
    <trkpt lat="52.018958" lon="6.060160"><ele>18.2</ele></trkpt>
    <trkpt lat="52.019072" lon="6.060363"><ele>18.3</ele></trkpt>
    <trkpt lat="52.019181" lon="6.060535"><ele>18.4</ele></trkpt>
    <trkpt lat="52.019257" lon="6.060702"><ele>18.4</ele></trkpt>
    <trkpt lat="52.019433" lon="6.060997"><ele>18.5</ele></trkpt>
    <trkpt lat="52.019591" lon="6.061257"><ele>18.8</ele></trkpt>
    <trkpt lat="52.019630" lon="6.061241"><ele>18.8</ele></trkpt>
    <trkpt lat="52.019764" lon="6.061206"><ele>18.7</ele></trkpt>
    <trkpt lat="52.020139" lon="6.061141"><ele>19.3</ele></trkpt>
    <trkpt lat="52.020498" lon="6.061102"><ele>19.9</ele></trkpt>
    <trkpt lat="52.020845" lon="6.061054"><ele>21.1</ele></trkpt>
    <trkpt lat="52.020883" lon="6.061043"><ele>21.1</ele></trkpt>
    <trkpt lat="52.020976" lon="6.060996"><ele>21.1</ele></trkpt>
    <trkpt lat="52.021039" lon="6.060946"><ele>21.0</ele></trkpt>
    <trkpt lat="52.021471" lon="6.060456"><ele>21.6</ele></trkpt>
    <trkpt lat="52.021774" lon="6.060106"><ele>22.3</ele></trkpt>
    <trkpt lat="52.022228" lon="6.059621"><ele>23.7</ele></trkpt>
    <trkpt lat="52.022368" lon="6.059537"><ele>24.2</ele></trkpt>
    <trkpt lat="52.022742" lon="6.059404"><ele>25.1</ele></trkpt>
    <trkpt lat="52.022834" lon="6.059364"><ele>25.4</ele></trkpt>
    <trkpt lat="52.022899" lon="6.059327"><ele>25.7</ele></trkpt>
    <trkpt lat="52.023004" lon="6.059270"><ele>26.1</ele></trkpt>
    <trkpt lat="52.023132" lon="6.059166"><ele>26.5</ele></trkpt>
    <trkpt lat="52.023266" lon="6.058988"><ele>26.8</ele></trkpt>
    <trkpt lat="52.023368" lon="6.058831"><ele>27.1</ele></trkpt>
    <trkpt lat="52.023469" lon="6.058624"><ele>27.5</ele></trkpt>
    <trkpt lat="52.023721" lon="6.058036"><ele>28.2</ele></trkpt>
    <trkpt lat="52.023800" lon="6.057862"><ele>28.4</ele></trkpt>
    <trkpt lat="52.023888" lon="6.057782"><ele>28.8</ele></trkpt>
    <trkpt lat="52.024071" lon="6.057675"><ele>29.5</ele></trkpt>
    <trkpt lat="52.024450" lon="6.057478"><ele>30.6</ele></trkpt>
    <trkpt lat="52.024784" lon="6.057243"><ele>31.7</ele></trkpt>
    <trkpt lat="52.025127" lon="6.056960"><ele>32.9</ele></trkpt>
    <trkpt lat="52.025447" lon="6.056733"><ele>34.2</ele></trkpt>
    <trkpt lat="52.026170" lon="6.056303"><ele>37.9</ele></trkpt>
    <trkpt lat="52.026808" lon="6.055946"><ele>42.0</ele></trkpt>
    <trkpt lat="52.027034" lon="6.055867"><ele>43.5</ele></trkpt>
    <trkpt lat="52.027275" lon="6.055829"><ele>45.1</ele></trkpt>
    <trkpt lat="52.027811" lon="6.055790"><ele>49.0</ele></trkpt>
    <trkpt lat="52.027893" lon="6.055767"><ele>49.7</ele></trkpt>
    <trkpt lat="52.027962" lon="6.055721"><ele>50.3</ele></trkpt>
    <trkpt lat="52.028030" lon="6.055622"><ele>51.0</ele></trkpt>
    <trkpt lat="52.028060" lon="6.055545"><ele>51.4</ele></trkpt>
    <trkpt lat="52.028081" lon="6.055449"><ele>51.9</ele></trkpt>
    <trkpt lat="52.028132" lon="6.055021"><ele>53.9</ele></trkpt>
    <trkpt lat="52.028220" lon="6.054626"><ele>55.3</ele></trkpt>
    <trkpt lat="52.028271" lon="6.054361"><ele>56.2</ele></trkpt>
    <trkpt lat="52.028302" lon="6.054120"><ele>57.0</ele></trkpt>
    <trkpt lat="52.028336" lon="6.053936"><ele>57.7</ele></trkpt>
    <trkpt lat="52.028381" lon="6.053741"><ele>58.6</ele></trkpt>
    <trkpt lat="52.028441" lon="6.053592"><ele>59.3</ele></trkpt>
    <trkpt lat="52.028538" lon="6.053403"><ele>59.8</ele></trkpt>
    <trkpt lat="52.028601" lon="6.053274"><ele>60.0</ele></trkpt>
    <trkpt lat="52.029054" lon="6.052388"><ele>57.6</ele></trkpt>
    <trkpt lat="52.029112" lon="6.052277"><ele>57.2</ele></trkpt>
    <trkpt lat="52.029262" lon="6.052008"><ele>56.0</ele></trkpt>
    <trkpt lat="52.029706" lon="6.051211"><ele>53.7</ele></trkpt>
    <trkpt lat="52.030278" lon="6.050221"><ele>52.7</ele></trkpt>
    <trkpt lat="52.030663" lon="6.049493"><ele>52.5</ele></trkpt>
    <trkpt lat="52.030972" lon="6.048760"><ele>53.0</ele></trkpt>
    <trkpt lat="52.031054" lon="6.048538"><ele>53.4</ele></trkpt>
    <trkpt lat="52.031154" lon="6.048219"><ele>53.7</ele></trkpt>
    <trkpt lat="52.031177" lon="6.048143"><ele>53.7</ele></trkpt>
    <trkpt lat="52.031523" lon="6.046748"><ele>53.9</ele></trkpt>
    <trkpt lat="52.031656" lon="6.046179"><ele>54.2</ele></trkpt>
    <trkpt lat="52.032279" lon="6.043585"><ele>55.7</ele></trkpt>
    <trkpt lat="52.032348" lon="6.043228"><ele>55.8</ele></trkpt>
    <trkpt lat="52.032372" lon="6.042970"><ele>56.1</ele></trkpt>
    <trkpt lat="52.032370" lon="6.042830"><ele>56.3</ele></trkpt>
    <trkpt lat="52.032360" lon="6.042772"><ele>56.4</ele></trkpt>
    <trkpt lat="52.032348" lon="6.042726"><ele>56.5</ele></trkpt>
    <trkpt lat="52.032314" lon="6.042641"><ele>56.8</ele></trkpt>
    <trkpt lat="52.032270" lon="6.042564"><ele>57.2</ele></trkpt>
    <trkpt lat="52.032211" lon="6.042499"><ele>57.6</ele></trkpt>
    <trkpt lat="52.032139" lon="6.042446"><ele>58.0</ele></trkpt>
    <trkpt lat="52.031925" lon="6.042340"><ele>59.2</ele></trkpt>
    <trkpt lat="52.031795" lon="6.042254"><ele>59.9</ele></trkpt>
    <trkpt lat="52.031739" lon="6.042205"><ele>60.2</ele></trkpt>
    <trkpt lat="52.031684" lon="6.042134"><ele>60.4</ele></trkpt>
    <trkpt lat="52.031611" lon="6.042019"><ele>60.8</ele></trkpt>
    <trkpt lat="52.031424" lon="6.041528"><ele>61.7</ele></trkpt>
    <trkpt lat="52.031353" lon="6.041294"><ele>61.9</ele></trkpt>
    <trkpt lat="52.031245" lon="6.041007"><ele>62.4</ele></trkpt>
    <trkpt lat="52.031154" lon="6.040820"><ele>62.8</ele></trkpt>
    <trkpt lat="52.031019" lon="6.040586"><ele>63.5</ele></trkpt>
    <trkpt lat="52.030859" lon="6.040415"><ele>64.3</ele></trkpt>
    <trkpt lat="52.030680" lon="6.040245"><ele>65.2</ele></trkpt>
    <trkpt lat="52.030252" lon="6.039916"><ele>66.5</ele></trkpt>
    <trkpt lat="52.030200" lon="6.039858"><ele>66.7</ele></trkpt>
    <trkpt lat="52.030122" lon="6.039720"><ele>66.8</ele></trkpt>
    <trkpt lat="52.030056" lon="6.039514"><ele>67.1</ele></trkpt>
    <trkpt lat="52.029994" lon="6.039267"><ele>67.8</ele></trkpt>
    <trkpt lat="52.028967" lon="6.035315"><ele>80.3</ele></trkpt>
    <trkpt lat="52.028939" lon="6.035195"><ele>80.9</ele></trkpt>
    <trkpt lat="52.028920" lon="6.035078"><ele>81.5</ele></trkpt>
    <trkpt lat="52.028915" lon="6.034916"><ele>82.5</ele></trkpt>
    <trkpt lat="52.028920" lon="6.034747"><ele>83.4</ele></trkpt>
    <trkpt lat="52.028944" lon="6.034434"><ele>85.1</ele></trkpt>
    <trkpt lat="52.028981" lon="6.034104"><ele>86.8</ele></trkpt>
    <trkpt lat="52.029058" lon="6.033606"><ele>88.3</ele></trkpt>
    <trkpt lat="52.029062" lon="6.033537"><ele>88.4</ele></trkpt>
    <trkpt lat="52.029054" lon="6.033469"><ele>88.6</ele></trkpt>
    <trkpt lat="52.029009" lon="6.033304"><ele>88.9</ele></trkpt>
    <trkpt lat="52.028913" lon="6.033159"><ele>89.3</ele></trkpt>
    <trkpt lat="52.028812" lon="6.033041"><ele>89.8</ele></trkpt>
    <trkpt lat="52.028592" lon="6.032868"><ele>89.6</ele></trkpt>
    <trkpt lat="52.028327" lon="6.032639"><ele>88.3</ele></trkpt>
    <trkpt lat="52.028246" lon="6.032549"><ele>88.0</ele></trkpt>
    <trkpt lat="52.028174" lon="6.032444"><ele>87.9</ele></trkpt>
    <trkpt lat="52.028107" lon="6.032310"><ele>87.7</ele></trkpt>
    <trkpt lat="52.027985" lon="6.031918"><ele>87.0</ele></trkpt>
    <trkpt lat="52.027967" lon="6.031825"><ele>86.9</ele></trkpt>
    <trkpt lat="52.027908" lon="6.031535"><ele>86.4</ele></trkpt>
    <trkpt lat="52.027806" lon="6.031039"><ele>86.3</ele></trkpt>
    <trkpt lat="52.027778" lon="6.030899"><ele>86.3</ele></trkpt>
    <trkpt lat="52.027732" lon="6.030469"><ele>86.0</ele></trkpt>
    <trkpt lat="52.027746" lon="6.030382"><ele>85.9</ele></trkpt>
    <trkpt lat="52.027726" lon="6.030156"><ele>85.5</ele></trkpt>
    <trkpt lat="52.027723" lon="6.029999"><ele>85.1</ele></trkpt>
    <trkpt lat="52.027731" lon="6.029845"><ele>84.7</ele></trkpt>
    <trkpt lat="52.027753" lon="6.029523"><ele>84.0</ele></trkpt>
    <trkpt lat="52.027833" lon="6.028753"><ele>83.4</ele></trkpt>
    <trkpt lat="52.027871" lon="6.028510"><ele>83.5</ele></trkpt>
    <trkpt lat="52.027959" lon="6.028120"><ele>84.4</ele></trkpt>
    <trkpt lat="52.028052" lon="6.027812"><ele>85.7</ele></trkpt>
    <trkpt lat="52.028310" lon="6.027028"><ele>88.5</ele></trkpt>
    <trkpt lat="52.028371" lon="6.026881"><ele>88.9</ele></trkpt>
    <trkpt lat="52.028546" lon="6.026531"><ele>90.0</ele></trkpt>
    <trkpt lat="52.028776" lon="6.026107"><ele>91.4</ele></trkpt>
    <trkpt lat="52.028884" lon="6.025929"><ele>91.5</ele></trkpt>
    <trkpt lat="52.028967" lon="6.025773"><ele>91.5</ele></trkpt>
    <trkpt lat="52.029012" lon="6.025670"><ele>91.4</ele></trkpt>
    <trkpt lat="52.029053" lon="6.025555"><ele>91.2</ele></trkpt>
    <trkpt lat="52.029091" lon="6.025412"><ele>91.1</ele></trkpt>
    <trkpt lat="52.029095" lon="6.025324"><ele>91.0</ele></trkpt>
    <trkpt lat="52.029114" lon="6.025231"><ele>90.9</ele></trkpt>
    <trkpt lat="52.029142" lon="6.025035"><ele>90.6</ele></trkpt>
    <trkpt lat="52.029169" lon="6.024779"><ele>90.3</ele></trkpt>
    <trkpt lat="52.029185" lon="6.024550"><ele>90.0</ele></trkpt>
    <trkpt lat="52.029199" lon="6.024269"><ele>89.7</ele></trkpt>
    <trkpt lat="52.029371" lon="6.024203"><ele>89.1</ele></trkpt>
    <trkpt lat="52.029417" lon="6.024146"><ele>89.0</ele></trkpt>
    <trkpt lat="52.029439" lon="6.024095"><ele>88.8</ele></trkpt>
    <trkpt lat="52.029448" lon="6.024039"><ele>88.7</ele></trkpt>
    <trkpt lat="52.029423" lon="6.023768"><ele>88.7</ele></trkpt>
    <trkpt lat="52.029395" lon="6.023446"><ele>88.7</ele></trkpt>
    <trkpt lat="52.029375" lon="6.023300"><ele>88.7</ele></trkpt>
    <trkpt lat="52.029357" lon="6.023176"><ele>88.7</ele></trkpt>
    <trkpt lat="52.029298" lon="6.022901"><ele>88.6</ele></trkpt>
    <trkpt lat="52.029241" lon="6.022589"><ele>88.4</ele></trkpt>
    <trkpt lat="52.029188" lon="6.022592"><ele>88.6</ele></trkpt>
    <trkpt lat="52.029141" lon="6.022612"><ele>88.8</ele></trkpt>
    <trkpt lat="52.029091" lon="6.022621"><ele>89.0</ele></trkpt>
    <trkpt lat="52.029024" lon="6.022661"><ele>89.5</ele></trkpt>
    <trkpt lat="52.028990" lon="6.022685"><ele>89.6</ele></trkpt>
    <trkpt lat="52.028960" lon="6.022583"><ele>89.5</ele></trkpt>
    <trkpt lat="52.028898" lon="6.022388"><ele>89.2</ele></trkpt>
    <trkpt lat="52.028866" lon="6.022285"><ele>89.0</ele></trkpt>
    <trkpt lat="52.028743" lon="6.021914"><ele>88.4</ele></trkpt>
    <trkpt lat="52.028683" lon="6.021788"><ele>88.2</ele></trkpt>
    <trkpt lat="52.028641" lon="6.021740"><ele>88.0</ele></trkpt>
    <trkpt lat="52.028765" lon="6.021514"><ele>88.0</ele></trkpt>
    <trkpt lat="52.028919" lon="6.021329"><ele>87.8</ele></trkpt>
    <trkpt lat="52.029057" lon="6.021160"><ele>87.7</ele></trkpt>
    <trkpt lat="52.030246" lon="6.019799"><ele>88.9</ele></trkpt>
    <trkpt lat="52.030411" lon="6.019667"><ele>89.2</ele></trkpt>
    <trkpt lat="52.030628" lon="6.019589"><ele>89.9</ele></trkpt>
    <trkpt lat="52.030997" lon="6.019622"><ele>91.8</ele></trkpt>
    <trkpt lat="52.031149" lon="6.019630"><ele>92.6</ele></trkpt>
    <trkpt lat="52.031248" lon="6.019612"><ele>93.0</ele></trkpt>
    <trkpt lat="52.031393" lon="6.019557"><ele>93.6</ele></trkpt>
    <trkpt lat="52.031539" lon="6.019497"><ele>94.0</ele></trkpt>
    <trkpt lat="52.031733" lon="6.019384"><ele>94.4</ele></trkpt>
    <trkpt lat="52.032348" lon="6.019056"><ele>94.9</ele></trkpt>
    <trkpt lat="52.032769" lon="6.018774"><ele>95.0</ele></trkpt>
    <trkpt lat="52.033124" lon="6.018449"><ele>94.6</ele></trkpt>
    <trkpt lat="52.033514" lon="6.018040"><ele>94.8</ele></trkpt>
    <trkpt lat="52.033989" lon="6.017434"><ele>97.4</ele></trkpt>
    <trkpt lat="52.034025" lon="6.017375"><ele>97.5</ele></trkpt>
    <trkpt lat="52.034113" lon="6.017214"><ele>97.7</ele></trkpt>
    <trkpt lat="52.034206" lon="6.017023"><ele>97.8</ele></trkpt>
    <trkpt lat="52.034338" lon="6.016725"><ele>97.9</ele></trkpt>
    <trkpt lat="52.034423" lon="6.016491"><ele>97.8</ele></trkpt>
    <trkpt lat="52.034514" lon="6.016177"><ele>97.5</ele></trkpt>
    <trkpt lat="52.034590" lon="6.015834"><ele>97.1</ele></trkpt>
    <trkpt lat="52.034676" lon="6.015424"><ele>97.0</ele></trkpt>
    <trkpt lat="52.034721" lon="6.015159"><ele>97.0</ele></trkpt>
    <trkpt lat="52.034747" lon="6.014960"><ele>97.1</ele></trkpt>
    <trkpt lat="52.034768" lon="6.014728"><ele>97.1</ele></trkpt>
    <trkpt lat="52.034790" lon="6.014370"><ele>97.3</ele></trkpt>
    <trkpt lat="52.034797" lon="6.013918"><ele>97.2</ele></trkpt>
    <trkpt lat="52.034788" lon="6.013626"><ele>97.3</ele></trkpt>
    <trkpt lat="52.034783" lon="6.013399"><ele>97.5</ele></trkpt>
    <trkpt lat="52.034776" lon="6.013260"><ele>97.6</ele></trkpt>
    <trkpt lat="52.035140" lon="6.013179"><ele>95.7</ele></trkpt>
    <trkpt lat="52.035230" lon="6.012729"><ele>95.3</ele></trkpt>
    <trkpt lat="52.035447" lon="6.012791"><ele>94.3</ele></trkpt>
    <trkpt lat="52.035511" lon="6.012860"><ele>94.0</ele></trkpt>
    <trkpt lat="52.035532" lon="6.012928"><ele>93.7</ele></trkpt>
    <trkpt lat="52.035542" lon="6.013004"><ele>93.4</ele></trkpt>
    <trkpt lat="52.035582" lon="6.013100"><ele>93.1</ele></trkpt>
    <trkpt lat="52.035601" lon="6.013124"><ele>93.0</ele></trkpt>
    <trkpt lat="52.035633" lon="6.013151"><ele>92.8</ele></trkpt>
    <trkpt lat="52.035817" lon="6.013237"><ele>92.0</ele></trkpt>
    <trkpt lat="52.035946" lon="6.013328"><ele>91.5</ele></trkpt>
    <trkpt lat="52.035968" lon="6.013343"><ele>91.2</ele></trkpt>
    <trkpt lat="52.036030" lon="6.013394"><ele>91.3</ele></trkpt>
    <trkpt lat="52.036190" lon="6.013534"><ele>90.4</ele></trkpt>
    <trkpt lat="52.036338" lon="6.013696"><ele>89.6</ele></trkpt>
    <trkpt lat="52.036649" lon="6.014173"><ele>87.9</ele></trkpt>
    <trkpt lat="52.036898" lon="6.014637"><ele>87.2</ele></trkpt>
    <trkpt lat="52.036970" lon="6.014705"><ele>87.1</ele></trkpt>
    <trkpt lat="52.037048" lon="6.014758"><ele>87.0</ele></trkpt>
    <trkpt lat="52.037157" lon="6.014776"><ele>86.8</ele></trkpt>
    <trkpt lat="52.037347" lon="6.014688"><ele>86.4</ele></trkpt>
    <trkpt lat="52.037540" lon="6.014567"><ele>86.2</ele></trkpt>
    <trkpt lat="52.037782" lon="6.014437"><ele>86.3</ele></trkpt>
    <trkpt lat="52.037989" lon="6.014456"><ele>86.5</ele></trkpt>
    <trkpt lat="52.038653" lon="6.014608"><ele>85.8</ele></trkpt>
    <trkpt lat="52.038910" lon="6.014679"><ele>85.1</ele></trkpt>
    <trkpt lat="52.039013" lon="6.014757"><ele>84.6</ele></trkpt>
    <trkpt lat="52.039509" lon="6.015368"><ele>81.5</ele></trkpt>
    <trkpt lat="52.039755" lon="6.015696"><ele>80.0</ele></trkpt>
    <trkpt lat="52.039922" lon="6.015961"><ele>79.2</ele></trkpt>
    <trkpt lat="52.040411" lon="6.016816"><ele>76.5</ele></trkpt>
    <trkpt lat="52.040526" lon="6.016986"><ele>75.4</ele></trkpt>
    <trkpt lat="52.040627" lon="6.017091"><ele>74.5</ele></trkpt>
    <trkpt lat="52.040878" lon="6.017385"><ele>73.1</ele></trkpt>
    <trkpt lat="52.040955" lon="6.017553"><ele>72.8</ele></trkpt>
    <trkpt lat="52.041083" lon="6.017739"><ele>72.5</ele></trkpt>
    <trkpt lat="52.041382" lon="6.018010"><ele>71.9</ele></trkpt>
    <trkpt lat="52.041512" lon="6.018163"><ele>71.6</ele></trkpt>
    <trkpt lat="52.041582" lon="6.018276"><ele>71.4</ele></trkpt>
    <trkpt lat="52.041687" lon="6.018537"><ele>71.0</ele></trkpt>
    <trkpt lat="52.041854" lon="6.019224"><ele>70.3</ele></trkpt>
    <trkpt lat="52.041938" lon="6.019464"><ele>70.1</ele></trkpt>
    <trkpt lat="52.042043" lon="6.019653"><ele>69.9</ele></trkpt>
    <trkpt lat="52.042263" lon="6.019985"><ele>69.6</ele></trkpt>
    <trkpt lat="52.042320" lon="6.020098"><ele>69.7</ele></trkpt>
    <trkpt lat="52.042366" lon="6.020232"><ele>69.7</ele></trkpt>
    <trkpt lat="52.042396" lon="6.020338"><ele>69.8</ele></trkpt>
    <trkpt lat="52.042418" lon="6.020736"><ele>70.4</ele></trkpt>
    <trkpt lat="52.042440" lon="6.020932"><ele>70.6</ele></trkpt>
    <trkpt lat="52.042488" lon="6.021080"><ele>70.9</ele></trkpt>
    <trkpt lat="52.042569" lon="6.021192"><ele>71.2</ele></trkpt>
    <trkpt lat="52.042710" lon="6.021286"><ele>71.8</ele></trkpt>
    <trkpt lat="52.042893" lon="6.021424"><ele>72.7</ele></trkpt>
    <trkpt lat="52.042970" lon="6.021543"><ele>73.2</ele></trkpt>
    <trkpt lat="52.043042" lon="6.021762"><ele>74.0</ele></trkpt>
    <trkpt lat="52.043165" lon="6.022295"><ele>75.7</ele></trkpt>
    <trkpt lat="52.043265" lon="6.022585"><ele>76.8</ele></trkpt>
    <trkpt lat="52.043671" lon="6.023279"><ele>79.8</ele></trkpt>
    <trkpt lat="52.043873" lon="6.023516"><ele>81.3</ele></trkpt>
    <trkpt lat="52.043955" lon="6.023556"><ele>81.8</ele></trkpt>
    <trkpt lat="52.044595" lon="6.023782"><ele>85.3</ele></trkpt>
    <trkpt lat="52.045349" lon="6.023923"><ele>85.7</ele></trkpt>
    <trkpt lat="52.045462" lon="6.023962"><ele>85.5</ele></trkpt>
    <trkpt lat="52.045633" lon="6.024070"><ele>85.0</ele></trkpt>
    <trkpt lat="52.046167" lon="6.024532"><ele>82.9</ele></trkpt>
    <trkpt lat="52.046260" lon="6.024639"><ele>82.5</ele></trkpt>
    <trkpt lat="52.046886" lon="6.025256"><ele>79.6</ele></trkpt>
    <trkpt lat="52.047249" lon="6.025629"><ele>78.5</ele></trkpt>
    <trkpt lat="52.047309" lon="6.025672"><ele>78.3</ele></trkpt>
    <trkpt lat="52.047402" lon="6.025699"><ele>78.1</ele></trkpt>
    <trkpt lat="52.047465" lon="6.025703"><ele>77.9</ele></trkpt>
    <trkpt lat="52.047546" lon="6.025671"><ele>77.7</ele></trkpt>
    <trkpt lat="52.047974" lon="6.025385"><ele>77.2</ele></trkpt>
    <trkpt lat="52.048355" lon="6.025111"><ele>76.9</ele></trkpt>
    <trkpt lat="52.048515" lon="6.025031"><ele>76.4</ele></trkpt>
    <trkpt lat="52.048703" lon="6.024959"><ele>76.4</ele></trkpt>
    <trkpt lat="52.048868" lon="6.024933"><ele>76.8</ele></trkpt>
    <trkpt lat="52.049017" lon="6.024968"><ele>77.5</ele></trkpt>
    <trkpt lat="52.049167" lon="6.025036"><ele>78.1</ele></trkpt>
    <trkpt lat="52.049297" lon="6.025048"><ele>78.4</ele></trkpt>
    <trkpt lat="52.049632" lon="6.024984"><ele>78.3</ele></trkpt>
    <trkpt lat="52.050096" lon="6.025050"><ele>78.3</ele></trkpt>
    <trkpt lat="52.050455" lon="6.025159"><ele>78.6</ele></trkpt>
    <trkpt lat="52.050827" lon="6.025253"><ele>78.6</ele></trkpt>
    <trkpt lat="52.052430" lon="6.025751"><ele>79.0</ele></trkpt>
    <trkpt lat="52.052679" lon="6.025836"><ele>79.3</ele></trkpt>
    <trkpt lat="52.052897" lon="6.025940"><ele>79.2</ele></trkpt>
    <trkpt lat="52.053125" lon="6.026103"><ele>79.0</ele></trkpt>
    <trkpt lat="52.053342" lon="6.026418"><ele>78.2</ele></trkpt>
    <trkpt lat="52.053427" lon="6.026528"><ele>78.1</ele></trkpt>
    <trkpt lat="52.053533" lon="6.026610"><ele>77.8</ele></trkpt>
    <trkpt lat="52.053663" lon="6.026632"><ele>77.6</ele></trkpt>
    <trkpt lat="52.053699" lon="6.026615"><ele>77.5</ele></trkpt>
    <trkpt lat="52.053806" lon="6.026595"><ele>77.7</ele></trkpt>
    <trkpt lat="52.053945" lon="6.026510"><ele>78.1</ele></trkpt>
    <trkpt lat="52.054031" lon="6.026441"><ele>78.3</ele></trkpt>
    <trkpt lat="52.054170" lon="6.026267"><ele>78.6</ele></trkpt>
    <trkpt lat="52.054317" lon="6.025959"><ele>78.7</ele></trkpt>
    <trkpt lat="52.054509" lon="6.025582"><ele>78.9</ele></trkpt>
    <trkpt lat="52.054605" lon="6.025480"><ele>78.9</ele></trkpt>
    <trkpt lat="52.054715" lon="6.025450"><ele>79.1</ele></trkpt>
    <trkpt lat="52.054791" lon="6.025468"><ele>79.3</ele></trkpt>
    <trkpt lat="52.054865" lon="6.025536"><ele>79.7</ele></trkpt>
    <trkpt lat="52.055001" lon="6.025717"><ele>80.4</ele></trkpt>
    <trkpt lat="52.055256" lon="6.026116"><ele>82.2</ele></trkpt>
    <trkpt lat="52.055748" lon="6.026731"><ele>85.4</ele></trkpt>
    <trkpt lat="52.055956" lon="6.026971"><ele>86.8</ele></trkpt>
    <trkpt lat="52.056192" lon="6.027168"><ele>87.3</ele></trkpt>
    <trkpt lat="52.056590" lon="6.027477"><ele>87.1</ele></trkpt>
    <trkpt lat="52.056969" lon="6.027781"><ele>87.8</ele></trkpt>
    <trkpt lat="52.057093" lon="6.027857"><ele>88.0</ele></trkpt>
    <trkpt lat="52.057128" lon="6.027788"><ele>88.0</ele></trkpt>
    <trkpt lat="52.058389" lon="6.025187"><ele>91.7</ele></trkpt>
    <trkpt lat="52.058498" lon="6.025013"><ele>91.6</ele></trkpt>
    <trkpt lat="52.058811" lon="6.024268"><ele>89.7</ele></trkpt>
    <trkpt lat="52.059026" lon="6.023788"><ele>89.2</ele></trkpt>
    <trkpt lat="52.059085" lon="6.023656"><ele>88.9</ele></trkpt>
    <trkpt lat="52.059645" lon="6.022224"><ele>86.9</ele></trkpt>
    <trkpt lat="52.059682" lon="6.022134"><ele>86.4</ele></trkpt>
    <trkpt lat="52.059853" lon="6.021730"><ele>83.9</ele></trkpt>
    <trkpt lat="52.060050" lon="6.021289"><ele>81.9</ele></trkpt>
    <trkpt lat="52.060098" lon="6.021165"><ele>81.4</ele></trkpt>
    <trkpt lat="52.060198" lon="6.021170"><ele>81.7</ele></trkpt>
    <trkpt lat="52.063108" lon="6.022282"><ele>71.6</ele></trkpt>
    <trkpt lat="52.063555" lon="6.022616"><ele>69.5</ele></trkpt>
    <trkpt lat="52.063801" lon="6.022900"><ele>68.8</ele></trkpt>
    <trkpt lat="52.063947" lon="6.023226"><ele>69.0</ele></trkpt>
    <trkpt lat="52.064254" lon="6.024267"><ele>71.8</ele></trkpt>
    <trkpt lat="52.064278" lon="6.024413"><ele>72.1</ele></trkpt>
    <trkpt lat="52.064320" lon="6.024668"><ele>72.7</ele></trkpt>
    <trkpt lat="52.064341" lon="6.024946"><ele>73.1</ele></trkpt>
    <trkpt lat="52.064329" lon="6.025201"><ele>73.8</ele></trkpt>
    <trkpt lat="52.064242" lon="6.026165"><ele>75.6</ele></trkpt>
    <trkpt lat="52.064239" lon="6.026842"><ele>77.3</ele></trkpt>
    <trkpt lat="52.064269" lon="6.027200"><ele>77.9</ele></trkpt>
    <trkpt lat="52.064346" lon="6.027736"><ele>78.6</ele></trkpt>
    <trkpt lat="52.064434" lon="6.028035"><ele>78.6</ele></trkpt>
    <trkpt lat="52.064558" lon="6.028300"><ele>78.5</ele></trkpt>
    <trkpt lat="52.064746" lon="6.028607"><ele>78.2</ele></trkpt>
    <trkpt lat="52.066050" lon="6.030300"><ele>77.0</ele></trkpt>
    <trkpt lat="52.066449" lon="6.031122"><ele>76.1</ele></trkpt>
    <trkpt lat="52.066470" lon="6.031165"><ele>76.0</ele></trkpt>
    <trkpt lat="52.066819" lon="6.030683"><ele>76.3</ele></trkpt>
    <trkpt lat="52.067185" lon="6.030270"><ele>74.7</ele></trkpt>
    <trkpt lat="52.067489" lon="6.029992"><ele>73.2</ele></trkpt>
    <trkpt lat="52.067676" lon="6.029857"><ele>72.4</ele></trkpt>
    <trkpt lat="52.068119" lon="6.029593"><ele>71.0</ele></trkpt>
    <trkpt lat="52.068561" lon="6.029398"><ele>69.7</ele></trkpt>
    <trkpt lat="52.069127" lon="6.029212"><ele>67.4</ele></trkpt>
    <trkpt lat="52.069541" lon="6.029122"><ele>65.7</ele></trkpt>
    <trkpt lat="52.069694" lon="6.029044"><ele>65.1</ele></trkpt>
    <trkpt lat="52.069754" lon="6.029019"><ele>64.7</ele></trkpt>
    <trkpt lat="52.069811" lon="6.028962"><ele>64.4</ele></trkpt>
    <trkpt lat="52.070436" lon="6.028081"><ele>60.9</ele></trkpt>
    <trkpt lat="52.070503" lon="6.027952"><ele>60.5</ele></trkpt>
    <trkpt lat="52.070557" lon="6.027818"><ele>60.1</ele></trkpt>
    <trkpt lat="52.070604" lon="6.027721"><ele>59.9</ele></trkpt>
    <trkpt lat="52.070759" lon="6.027459"><ele>59.2</ele></trkpt>
    <trkpt lat="52.071311" lon="6.026638"><ele>56.1</ele></trkpt>
    <trkpt lat="52.072046" lon="6.025612"><ele>53.3</ele></trkpt>
    <trkpt lat="52.073917" lon="6.022953"><ele>49.1</ele></trkpt>
    <trkpt lat="52.075236" lon="6.021046"><ele>49.6</ele></trkpt>
    <trkpt lat="52.076616" lon="6.019071"><ele>49.5</ele></trkpt>
    <trkpt lat="52.077924" lon="6.021856"><ele>40.7</ele></trkpt>
    <trkpt lat="52.078286" lon="6.022604"><ele>38.6</ele></trkpt>
    <trkpt lat="52.078434" lon="6.022894"><ele>37.9</ele></trkpt>
    <trkpt lat="52.079714" lon="6.025641"><ele>38.8</ele></trkpt>
    <trkpt lat="52.079961" lon="6.026161"><ele>39.6</ele></trkpt>
    <trkpt lat="52.080776" lon="6.027880"><ele>38.2</ele></trkpt>
    <trkpt lat="52.081584" lon="6.029615"><ele>36.8</ele></trkpt>
    <trkpt lat="52.082834" lon="6.032265"><ele>34.3</ele></trkpt>
    <trkpt lat="52.083256" lon="6.033150"><ele>33.8</ele></trkpt>
    <trkpt lat="52.083393" lon="6.033449"><ele>33.6</ele></trkpt>
    <trkpt lat="52.083466" lon="6.033589"><ele>33.4</ele></trkpt>
    <trkpt lat="52.083508" lon="6.033646"><ele>33.4</ele></trkpt>
    <trkpt lat="52.083533" lon="6.033622"><ele>33.5</ele></trkpt>
    <trkpt lat="52.083792" lon="6.034333"><ele>32.9</ele></trkpt>
    <trkpt lat="52.084170" lon="6.035380"><ele>32.2</ele></trkpt>
    <trkpt lat="52.085450" lon="6.038883"><ele>32.3</ele></trkpt>
    <trkpt lat="52.085714" lon="6.039602"><ele>31.8</ele></trkpt>
    <trkpt lat="52.085802" lon="6.039806"><ele>31.6</ele></trkpt>
    <trkpt lat="52.085876" lon="6.040025"><ele>31.5</ele></trkpt>
    <trkpt lat="52.085947" lon="6.040178"><ele>31.4</ele></trkpt>
    <trkpt lat="52.086023" lon="6.040320"><ele>31.3</ele></trkpt>
    <trkpt lat="52.087801" lon="6.043278"><ele>29.6</ele></trkpt>
    <trkpt lat="52.087902" lon="6.043450"><ele>29.1</ele></trkpt>
    <trkpt lat="52.088532" lon="6.044422"><ele>29.2</ele></trkpt>
    <trkpt lat="52.089043" lon="6.045078"><ele>28.5</ele></trkpt>
    <trkpt lat="52.089366" lon="6.045507"><ele>28.1</ele></trkpt>
    <trkpt lat="52.090211" lon="6.046630"><ele>27.2</ele></trkpt>
    <trkpt lat="52.091309" lon="6.048092"><ele>26.4</ele></trkpt>
    <trkpt lat="52.091430" lon="6.048280"><ele>26.3</ele></trkpt>
    <trkpt lat="52.092490" lon="6.050260"><ele>25.3</ele></trkpt>
    <trkpt lat="52.094762" lon="6.055493"><ele>24.1</ele></trkpt>
    <trkpt lat="52.094838" lon="6.055910"><ele>24.0</ele></trkpt>
    <trkpt lat="52.094851" lon="6.056054"><ele>24.2</ele></trkpt>
    <trkpt lat="52.094842" lon="6.056151"><ele>24.2</ele></trkpt>
    <trkpt lat="52.094820" lon="6.056281"><ele>24.0</ele></trkpt>
    <trkpt lat="52.094882" lon="6.056372"><ele>24.2</ele></trkpt>
    <trkpt lat="52.094973" lon="6.056520"><ele>23.8</ele></trkpt>
    <trkpt lat="52.095047" lon="6.056529"><ele>23.9</ele></trkpt>
    <trkpt lat="52.095119" lon="6.056546"><ele>23.9</ele></trkpt>
    <trkpt lat="52.095246" lon="6.056626"><ele>23.8</ele></trkpt>
    <trkpt lat="52.095373" lon="6.056935"><ele>23.8</ele></trkpt>
    <trkpt lat="52.095527" lon="6.057296"><ele>23.7</ele></trkpt>
    <trkpt lat="52.095563" lon="6.057380"><ele>23.7</ele></trkpt>
    <trkpt lat="52.096294" lon="6.059121"><ele>23.2</ele></trkpt>
    <trkpt lat="52.096794" lon="6.060288"><ele>22.8</ele></trkpt>
    <trkpt lat="52.096866" lon="6.060452"><ele>22.7</ele></trkpt>
    <trkpt lat="52.096970" lon="6.060644"><ele>22.7</ele></trkpt>
    <trkpt lat="52.097023" lon="6.060713"><ele>22.6</ele></trkpt>
    <trkpt lat="52.097092" lon="6.060801"><ele>22.5</ele></trkpt>
    <trkpt lat="52.097313" lon="6.061053"><ele>22.3</ele></trkpt>
    <trkpt lat="52.097864" lon="6.061486"><ele>21.7</ele></trkpt>
    <trkpt lat="52.098022" lon="6.061646"><ele>21.6</ele></trkpt>
    <trkpt lat="52.098430" lon="6.062180"><ele>21.1</ele></trkpt>
    <trkpt lat="52.098687" lon="6.062497"><ele>21.0</ele></trkpt>
    <trkpt lat="52.098943" lon="6.062714"><ele>20.8</ele></trkpt>
    <trkpt lat="52.099318" lon="6.062978"><ele>20.7</ele></trkpt>
    <trkpt lat="52.099480" lon="6.063050"><ele>20.7</ele></trkpt>
    <trkpt lat="52.099727" lon="6.063183"><ele>20.8</ele></trkpt>
    <trkpt lat="52.099763" lon="6.063207"><ele>20.8</ele></trkpt>
    <trkpt lat="52.099874" lon="6.063326"><ele>20.8</ele></trkpt>
    <trkpt lat="52.099916" lon="6.063379"><ele>20.9</ele></trkpt>
    <trkpt lat="52.099997" lon="6.063505"><ele>20.9</ele></trkpt>
    <trkpt lat="52.100098" lon="6.063694"><ele>20.9</ele></trkpt>
    <trkpt lat="52.100126" lon="6.063661"><ele>21.1</ele></trkpt>
    <trkpt lat="52.100250" lon="6.063514"><ele>21.1</ele></trkpt>
    <trkpt lat="52.100320" lon="6.063474"><ele>21.0</ele></trkpt>
    <trkpt lat="52.100372" lon="6.063473"><ele>21.0</ele></trkpt>
    <trkpt lat="52.100978" lon="6.063762"><ele>20.5</ele></trkpt>
    <trkpt lat="52.101450" lon="6.064096"><ele>20.2</ele></trkpt>
    <trkpt lat="52.101830" lon="6.064360"><ele>20.0</ele></trkpt>
    <trkpt lat="52.103345" lon="6.065114"><ele>19.7</ele></trkpt>
    <trkpt lat="52.103538" lon="6.065226"><ele>19.7</ele></trkpt>
    <trkpt lat="52.103590" lon="6.065257"><ele>19.7</ele></trkpt>
    <trkpt lat="52.103678" lon="6.065308"><ele>19.6</ele></trkpt>
    <trkpt lat="52.103757" lon="6.065355"><ele>19.5</ele></trkpt>
    <trkpt lat="52.103959" lon="6.065478"><ele>19.1</ele></trkpt>
    <trkpt lat="52.104167" lon="6.065622"><ele>19.1</ele></trkpt>
    <trkpt lat="52.104421" lon="6.065838"><ele>18.8</ele></trkpt>
    <trkpt lat="52.104476" lon="6.065888"><ele>18.7</ele></trkpt>
    <trkpt lat="52.104785" lon="6.066208"><ele>18.3</ele></trkpt>
    <trkpt lat="52.104815" lon="6.066238"><ele>18.4</ele></trkpt>
    <trkpt lat="52.104857" lon="6.066281"><ele>18.4</ele></trkpt>
    <trkpt lat="52.104929" lon="6.066376"><ele>18.4</ele></trkpt>
    <trkpt lat="52.104918" lon="6.066515"><ele>18.4</ele></trkpt>
    <trkpt lat="52.104903" lon="6.066582"><ele>18.4</ele></trkpt>
    <trkpt lat="52.104828" lon="6.066909"><ele>18.2</ele></trkpt>
    <trkpt lat="52.104664" lon="6.067636"><ele>18.2</ele></trkpt>
    <trkpt lat="52.104646" lon="6.067718"><ele>18.1</ele></trkpt>
    <trkpt lat="52.104629" lon="6.067826"><ele>18.1</ele></trkpt>
    <trkpt lat="52.104573" lon="6.068071"><ele>18.1</ele></trkpt>
    <trkpt lat="52.104057" lon="6.070348"><ele>17.6</ele></trkpt>
    <trkpt lat="52.104003" lon="6.070589"><ele>17.6</ele></trkpt>
    <trkpt lat="52.103931" lon="6.070710"><ele>17.5</ele></trkpt>
    <trkpt lat="52.103898" lon="6.070751"><ele>17.5</ele></trkpt>
    <trkpt lat="52.103837" lon="6.070783"><ele>17.6</ele></trkpt>
    <trkpt lat="52.103785" lon="6.070787"><ele>17.7</ele></trkpt>
    <trkpt lat="52.103746" lon="6.070815"><ele>17.8</ele></trkpt>
    <trkpt lat="52.103722" lon="6.070882"><ele>17.7</ele></trkpt>
    <trkpt lat="52.103637" lon="6.070813"><ele>17.7</ele></trkpt>
    <trkpt lat="52.102840" lon="6.070442"><ele>18.4</ele></trkpt>
    <trkpt lat="52.102014" lon="6.069946"><ele>19.1</ele></trkpt>
    <trkpt lat="52.101930" lon="6.069877"><ele>19.1</ele></trkpt>
    <trkpt lat="52.101717" lon="6.069685"><ele>19.2</ele></trkpt>
    <trkpt lat="52.100712" lon="6.069931"><ele>20.1</ele></trkpt>
    <trkpt lat="52.099475" lon="6.070228"><ele>20.2</ele></trkpt>
    <trkpt lat="52.099381" lon="6.070237"><ele>20.2</ele></trkpt>
    <trkpt lat="52.099319" lon="6.070194"><ele>20.0</ele></trkpt>
    <trkpt lat="52.099276" lon="6.070110"><ele>19.8</ele></trkpt>
    <trkpt lat="52.099263" lon="6.070075"><ele>19.8</ele></trkpt>
    <trkpt lat="52.099226" lon="6.069984"><ele>19.9</ele></trkpt>
    <trkpt lat="52.098977" lon="6.070248"><ele>20.0</ele></trkpt>
    <trkpt lat="52.098823" lon="6.070348"><ele>20.4</ele></trkpt>
    <trkpt lat="52.098721" lon="6.070477"><ele>20.3</ele></trkpt>
    <trkpt lat="52.098588" lon="6.070618"><ele>20.2</ele></trkpt>
    <trkpt lat="52.098541" lon="6.070655"><ele>20.2</ele></trkpt>
    <trkpt lat="52.097769" lon="6.071034"><ele>19.9</ele></trkpt>
    <trkpt lat="52.096938" lon="6.071412"><ele>19.2</ele></trkpt>
    <trkpt lat="52.096912" lon="6.071427"><ele>19.1</ele></trkpt>
    <trkpt lat="52.096827" lon="6.071460"><ele>18.9</ele></trkpt>
    <trkpt lat="52.096768" lon="6.071473"><ele>18.9</ele></trkpt>
    <trkpt lat="52.096707" lon="6.071521"><ele>18.8</ele></trkpt>
    <trkpt lat="52.096617" lon="6.071557"><ele>18.8</ele></trkpt>
    <trkpt lat="52.096568" lon="6.071597"><ele>18.9</ele></trkpt>
    <trkpt lat="52.096375" lon="6.071696"><ele>19.0</ele></trkpt>
    <trkpt lat="52.096308" lon="6.071701"><ele>19.0</ele></trkpt>
    <trkpt lat="52.096220" lon="6.071735"><ele>19.0</ele></trkpt>
    <trkpt lat="52.095623" lon="6.072041"><ele>18.8</ele></trkpt>
    <trkpt lat="52.094332" lon="6.072657"><ele>17.9</ele></trkpt>
    <trkpt lat="52.092290" lon="6.073625"><ele>17.7</ele></trkpt>
    <trkpt lat="52.092178" lon="6.073686"><ele>17.6</ele></trkpt>
    <trkpt lat="52.091522" lon="6.074017"><ele>17.4</ele></trkpt>
    <trkpt lat="52.090401" lon="6.074609"><ele>17.1</ele></trkpt>
    <trkpt lat="52.089478" lon="6.075048"><ele>17.1</ele></trkpt>
    <trkpt lat="52.088753" lon="6.075418"><ele>16.8</ele></trkpt>
    <trkpt lat="52.088726" lon="6.075457"><ele>16.8</ele></trkpt>
    <trkpt lat="52.087531" lon="6.076035"><ele>16.4</ele></trkpt>
    <trkpt lat="52.087432" lon="6.076076"><ele>16.4</ele></trkpt>
    <trkpt lat="52.087053" lon="6.076192"><ele>16.4</ele></trkpt>
    <trkpt lat="52.086416" lon="6.076372"><ele>16.4</ele></trkpt>
    <trkpt lat="52.085559" lon="6.076598"><ele>16.3</ele></trkpt>
    <trkpt lat="52.085434" lon="6.076626"><ele>16.3</ele></trkpt>
    <trkpt lat="52.085122" lon="6.076663"><ele>16.4</ele></trkpt>
    <trkpt lat="52.084709" lon="6.076667"><ele>16.5</ele></trkpt>
    <trkpt lat="52.084648" lon="6.076668"><ele>16.5</ele></trkpt>
    <trkpt lat="52.084359" lon="6.076672"><ele>16.4</ele></trkpt>
    <trkpt lat="52.084223" lon="6.076675"><ele>16.2</ele></trkpt>
    <trkpt lat="52.084043" lon="6.076664"><ele>16.1</ele></trkpt>
    <trkpt lat="52.083669" lon="6.076675"><ele>16.1</ele></trkpt>
    <trkpt lat="52.083626" lon="6.076631"><ele>16.2</ele></trkpt>
    <trkpt lat="52.083563" lon="6.076526"><ele>16.3</ele></trkpt>
    <trkpt lat="52.083552" lon="6.076509"><ele>16.3</ele></trkpt>
    <trkpt lat="52.083440" lon="6.076330"><ele>16.5</ele></trkpt>
    <trkpt lat="52.083290" lon="6.076613"><ele>16.3</ele></trkpt>
    <trkpt lat="52.083218" lon="6.076726"><ele>16.3</ele></trkpt>
    <trkpt lat="52.083146" lon="6.076816"><ele>16.2</ele></trkpt>
    <trkpt lat="52.083027" lon="6.076943"><ele>16.0</ele></trkpt>
    <trkpt lat="52.082886" lon="6.077088"><ele>15.9</ele></trkpt>
    <trkpt lat="52.082532" lon="6.077425"><ele>15.7</ele></trkpt>
    <trkpt lat="52.081783" lon="6.078132"><ele>15.2</ele></trkpt>
    <trkpt lat="52.081742" lon="6.078164"><ele>15.2</ele></trkpt>
    <trkpt lat="52.081610" lon="6.078265"><ele>15.3</ele></trkpt>
    <trkpt lat="52.081539" lon="6.078331"><ele>15.3</ele></trkpt>
    <trkpt lat="52.081359" lon="6.078515"><ele>15.3</ele></trkpt>
    <trkpt lat="52.081224" lon="6.078679"><ele>15.1</ele></trkpt>
    <trkpt lat="52.080148" lon="6.079714"><ele>14.5</ele></trkpt>
    <trkpt lat="52.080118" lon="6.079817"><ele>14.5</ele></trkpt>
    <trkpt lat="52.080109" lon="6.079934"><ele>14.4</ele></trkpt>
    <trkpt lat="52.080101" lon="6.079953"><ele>14.4</ele></trkpt>
    <trkpt lat="52.080073" lon="6.079979"><ele>14.4</ele></trkpt>
    <trkpt lat="52.080009" lon="6.080037"><ele>14.4</ele></trkpt>
    <trkpt lat="52.079914" lon="6.080090"><ele>14.5</ele></trkpt>
    <trkpt lat="52.079877" lon="6.080124"><ele>14.5</ele></trkpt>
    <trkpt lat="52.079751" lon="6.080281"><ele>14.5</ele></trkpt>
    <trkpt lat="52.079493" lon="6.080683"><ele>14.6</ele></trkpt>
    <trkpt lat="52.079233" lon="6.081048"><ele>14.6</ele></trkpt>
    <trkpt lat="52.078780" lon="6.081781"><ele>14.2</ele></trkpt>
    <trkpt lat="52.078720" lon="6.081861"><ele>14.1</ele></trkpt>
    <trkpt lat="52.077325" lon="6.083085"><ele>14.1</ele></trkpt>
    <trkpt lat="52.077303" lon="6.083118"><ele>14.2</ele></trkpt>
    <trkpt lat="52.077286" lon="6.083168"><ele>14.2</ele></trkpt>
    <trkpt lat="52.077268" lon="6.083199"><ele>14.3</ele></trkpt>
    <trkpt lat="52.077212" lon="6.083216"><ele>14.2</ele></trkpt>
    <trkpt lat="52.077173" lon="6.083219"><ele>14.2</ele></trkpt>
    <trkpt lat="52.077141" lon="6.083204"><ele>14.2</ele></trkpt>
    <trkpt lat="52.077112" lon="6.083174"><ele>14.3</ele></trkpt>
    <trkpt lat="52.077082" lon="6.083167"><ele>14.3</ele></trkpt>
    <trkpt lat="52.075535" lon="6.083143"><ele>14.1</ele></trkpt>
    <trkpt lat="52.075474" lon="6.083147"><ele>14.1</ele></trkpt>
    <trkpt lat="52.075411" lon="6.083180"><ele>14.1</ele></trkpt>
    <trkpt lat="52.075343" lon="6.083268"><ele>14.1</ele></trkpt>
    <trkpt lat="52.073365" lon="6.086821"><ele>13.1</ele></trkpt>
    <trkpt lat="52.073254" lon="6.087003"><ele>13.2</ele></trkpt>
    <trkpt lat="52.073196" lon="6.087085"><ele>13.3</ele></trkpt>
    <trkpt lat="52.073062" lon="6.087228"><ele>13.4</ele></trkpt>
    <trkpt lat="52.071967" lon="6.088106"><ele>13.3</ele></trkpt>
    <trkpt lat="52.071561" lon="6.088400"><ele>13.0</ele></trkpt>
    <trkpt lat="52.071252" lon="6.088552"><ele>12.6</ele></trkpt>
    <trkpt lat="52.070965" lon="6.088657"><ele>12.6</ele></trkpt>
    <trkpt lat="52.070494" lon="6.088805"><ele>12.5</ele></trkpt>
    <trkpt lat="52.070250" lon="6.088939"><ele>12.4</ele></trkpt>
    <trkpt lat="52.070138" lon="6.088989"><ele>12.4</ele></trkpt>
    <trkpt lat="52.068558" lon="6.089525"><ele>12.9</ele></trkpt>
    <trkpt lat="52.068367" lon="6.089581"><ele>13.0</ele></trkpt>
    <trkpt lat="52.068182" lon="6.089624"><ele>13.3</ele></trkpt>
    <trkpt lat="52.067984" lon="6.089647"><ele>14.0</ele></trkpt>
    <trkpt lat="52.067932" lon="6.089636"><ele>14.0</ele></trkpt>
    <trkpt lat="52.067617" lon="6.089478"><ele>13.9</ele></trkpt>
    <trkpt lat="52.067199" lon="6.089346"><ele>14.3</ele></trkpt>
    <trkpt lat="52.067144" lon="6.089354"><ele>14.4</ele></trkpt>
    <trkpt lat="52.067086" lon="6.089406"><ele>14.3</ele></trkpt>
    <trkpt lat="52.067050" lon="6.089424"><ele>14.4</ele></trkpt>
    <trkpt lat="52.066938" lon="6.089423"><ele>14.5</ele></trkpt>
    <trkpt lat="52.066881" lon="6.089423"><ele>14.5</ele></trkpt>
    <trkpt lat="52.066784" lon="6.089411"><ele>14.6</ele></trkpt>
    <trkpt lat="52.066756" lon="6.089394"><ele>14.6</ele></trkpt>
    <trkpt lat="52.066740" lon="6.089375"><ele>14.6</ele></trkpt>
    <trkpt lat="52.066650" lon="6.089190"><ele>14.7</ele></trkpt>
    <trkpt lat="52.066606" lon="6.089182"><ele>14.8</ele></trkpt>
    <trkpt lat="52.066386" lon="6.089187"><ele>14.9</ele></trkpt>
    <trkpt lat="52.066212" lon="6.089214"><ele>15.1</ele></trkpt>
    <trkpt lat="52.066132" lon="6.089245"><ele>15.2</ele></trkpt>
    <trkpt lat="52.065951" lon="6.089345"><ele>15.3</ele></trkpt>
    <trkpt lat="52.065920" lon="6.089356"><ele>15.4</ele></trkpt>
    <trkpt lat="52.065834" lon="6.089364"><ele>15.4</ele></trkpt>
    <trkpt lat="52.065718" lon="6.089389"><ele>15.5</ele></trkpt>
    <trkpt lat="52.065419" lon="6.089537"><ele>15.8</ele></trkpt>
    <trkpt lat="52.065292" lon="6.089619"><ele>15.9</ele></trkpt>
    <trkpt lat="52.065030" lon="6.089827"><ele>15.9</ele></trkpt>
    <trkpt lat="52.064897" lon="6.089915"><ele>16.0</ele></trkpt>
    <trkpt lat="52.064495" lon="6.090044"><ele>16.2</ele></trkpt>
    <trkpt lat="52.064351" lon="6.090115"><ele>16.3</ele></trkpt>
    <trkpt lat="52.064248" lon="6.090178"><ele>16.4</ele></trkpt>
    <trkpt lat="52.063779" lon="6.090553"><ele>17.0</ele></trkpt>
    <trkpt lat="52.063750" lon="6.090724"><ele>16.9</ele></trkpt>
    <trkpt lat="52.063717" lon="6.090805"><ele>16.9</ele></trkpt>
    <trkpt lat="52.063700" lon="6.090827"><ele>16.9</ele></trkpt>
    <trkpt lat="52.063665" lon="6.090858"><ele>17.0</ele></trkpt>
    <trkpt lat="52.063624" lon="6.090877"><ele>17.0</ele></trkpt>
    <trkpt lat="52.063576" lon="6.090892"><ele>17.0</ele></trkpt>
    <trkpt lat="52.063540" lon="6.090892"><ele>17.0</ele></trkpt>
    <trkpt lat="52.063480" lon="6.090862"><ele>17.0</ele></trkpt>
    <trkpt lat="52.063448" lon="6.090824"><ele>17.0</ele></trkpt>
    <trkpt lat="52.063397" lon="6.090716"><ele>17.1</ele></trkpt>
    <trkpt lat="52.063375" lon="6.090625"><ele>17.0</ele></trkpt>
    <trkpt lat="52.063362" lon="6.090523"><ele>17.0</ele></trkpt>
    <trkpt lat="52.063202" lon="6.090396"><ele>16.7</ele></trkpt>
    <trkpt lat="52.063154" lon="6.090471"><ele>16.7</ele></trkpt>
    <trkpt lat="52.062964" lon="6.090557"><ele>16.7</ele></trkpt>
    <trkpt lat="52.062588" lon="6.090726"><ele>16.7</ele></trkpt>
    <trkpt lat="52.062193" lon="6.090884"><ele>16.7</ele></trkpt>
    <trkpt lat="52.061585" lon="6.091152"><ele>16.8</ele></trkpt>
    <trkpt lat="52.061196" lon="6.091326"><ele>16.9</ele></trkpt>
    <trkpt lat="52.060600" lon="6.091595"><ele>17.2</ele></trkpt>
    <trkpt lat="52.060203" lon="6.091771"><ele>17.3</ele></trkpt>
    <trkpt lat="52.059674" lon="6.092006"><ele>17.7</ele></trkpt>
    <trkpt lat="52.059614" lon="6.092000"><ele>17.7</ele></trkpt>
    <trkpt lat="52.059579" lon="6.091956"><ele>17.7</ele></trkpt>
    <trkpt lat="52.059440" lon="6.092079"><ele>18.1</ele></trkpt>
    <trkpt lat="52.059277" lon="6.092164"><ele>18.2</ele></trkpt>
    <trkpt lat="52.059193" lon="6.092275"><ele>18.1</ele></trkpt>
    <trkpt lat="52.059137" lon="6.092371"><ele>18.2</ele></trkpt>
    <trkpt lat="52.058770" lon="6.092484"><ele>18.5</ele></trkpt>
    <trkpt lat="52.058743" lon="6.092497"><ele>18.5</ele></trkpt>
    <trkpt lat="52.058596" lon="6.092565"><ele>18.7</ele></trkpt>
    <trkpt lat="52.058120" lon="6.092769"><ele>18.8</ele></trkpt>
    <trkpt lat="52.057887" lon="6.092887"><ele>18.9</ele></trkpt>
    <trkpt lat="52.057752" lon="6.092976"><ele>18.9</ele></trkpt>
    <trkpt lat="52.057607" lon="6.093043"><ele>19.0</ele></trkpt>
    <trkpt lat="52.056708" lon="6.093432"><ele>19.2</ele></trkpt>
    <trkpt lat="52.055616" lon="6.093911"><ele>19.5</ele></trkpt>
    <trkpt lat="52.054947" lon="6.094201"><ele>19.7</ele></trkpt>
    <trkpt lat="52.054859" lon="6.094204"><ele>19.7</ele></trkpt>
    <trkpt lat="52.054751" lon="6.094253"><ele>19.8</ele></trkpt>
    <trkpt lat="52.054716" lon="6.094266"><ele>19.8</ele></trkpt>
    <trkpt lat="52.054608" lon="6.094313"><ele>19.8</ele></trkpt>
    <trkpt lat="52.054562" lon="6.094334"><ele>19.8</ele></trkpt>
    <trkpt lat="52.054451" lon="6.094382"><ele>19.8</ele></trkpt>
    <trkpt lat="52.054339" lon="6.094431"><ele>19.8</ele></trkpt>
    <trkpt lat="52.054275" lon="6.094496"><ele>19.8</ele></trkpt>
    <trkpt lat="52.054091" lon="6.094580"><ele>19.9</ele></trkpt>
    <trkpt lat="52.053651" lon="6.094770"><ele>19.9</ele></trkpt>
    <trkpt lat="52.053039" lon="6.095037"><ele>20.0</ele></trkpt>
    <trkpt lat="52.052902" lon="6.095098"><ele>20.0</ele></trkpt>
    <trkpt lat="52.052517" lon="6.095271"><ele>20.0</ele></trkpt>
    <trkpt lat="52.052229" lon="6.095401"><ele>20.0</ele></trkpt>
    <trkpt lat="52.051531" lon="6.095698"><ele>19.9</ele></trkpt>
    <trkpt lat="52.051186" lon="6.095846"><ele>19.9</ele></trkpt>
    <trkpt lat="52.051089" lon="6.095844"><ele>19.8</ele></trkpt>
    <trkpt lat="52.050974" lon="6.095895"><ele>20.0</ele></trkpt>
    <trkpt lat="52.050848" lon="6.095949"><ele>19.9</ele></trkpt>
    <trkpt lat="52.050733" lon="6.095999"><ele>20.0</ele></trkpt>
    <trkpt lat="52.050698" lon="6.096014"><ele>19.9</ele></trkpt>
    <trkpt lat="52.050669" lon="6.096028"><ele>19.8</ele></trkpt>
    <trkpt lat="52.050584" lon="6.096111"><ele>19.8</ele></trkpt>
    <trkpt lat="52.050294" lon="6.096244"><ele>19.8</ele></trkpt>
    <trkpt lat="52.049908" lon="6.096411"><ele>19.7</ele></trkpt>
    <trkpt lat="52.049511" lon="6.096583"><ele>19.6</ele></trkpt>
    <trkpt lat="52.049428" lon="6.096620"><ele>19.6</ele></trkpt>
    <trkpt lat="52.049082" lon="6.096773"><ele>19.5</ele></trkpt>
    <trkpt lat="52.048975" lon="6.096774"><ele>19.5</ele></trkpt>
    <trkpt lat="52.048868" lon="6.096822"><ele>19.4</ele></trkpt>
    <trkpt lat="52.048838" lon="6.096836"><ele>19.4</ele></trkpt>
    <trkpt lat="52.048710" lon="6.096892"><ele>19.5</ele></trkpt>
    <trkpt lat="52.048575" lon="6.096952"><ele>19.4</ele></trkpt>
    <trkpt lat="52.048556" lon="6.096960"><ele>19.4</ele></trkpt>
    <trkpt lat="52.048453" lon="6.097006"><ele>19.4</ele></trkpt>
    <trkpt lat="52.048378" lon="6.097080"><ele>19.4</ele></trkpt>
    <trkpt lat="52.048300" lon="6.097111"><ele>19.4</ele></trkpt>
    <trkpt lat="52.048298" lon="6.097112"><ele>19.4</ele></trkpt>
    <trkpt lat="52.047863" lon="6.097300"><ele>19.3</ele></trkpt>
    <trkpt lat="52.047020" lon="6.097665"><ele>19.1</ele></trkpt>
    <trkpt lat="52.046649" lon="6.097819"><ele>18.7</ele></trkpt>
    <trkpt lat="52.046332" lon="6.097959"><ele>18.5</ele></trkpt>
    <trkpt lat="52.046247" lon="6.097946"><ele>18.4</ele></trkpt>
    <trkpt lat="52.046207" lon="6.097963"><ele>18.4</ele></trkpt>
    <trkpt lat="52.046186" lon="6.097973"><ele>18.3</ele></trkpt>
    <trkpt lat="52.046046" lon="6.098036"><ele>18.2</ele></trkpt>
    <trkpt lat="52.045913" lon="6.098096"><ele>18.2</ele></trkpt>
    <trkpt lat="52.045789" lon="6.098151"><ele>18.1</ele></trkpt>
    <trkpt lat="52.045646" lon="6.098215"><ele>18.0</ele></trkpt>
    <trkpt lat="52.045512" lon="6.098275"><ele>18.0</ele></trkpt>
    <trkpt lat="52.045369" lon="6.098339"><ele>17.9</ele></trkpt>
    <trkpt lat="52.045325" lon="6.098359"><ele>17.9</ele></trkpt>
    <trkpt lat="52.045223" lon="6.098412"><ele>17.9</ele></trkpt>
    <trkpt lat="52.045159" lon="6.098446"><ele>17.8</ele></trkpt>
    <trkpt lat="52.045128" lon="6.098463"><ele>17.8</ele></trkpt>
    <trkpt lat="52.045044" lon="6.098520"><ele>17.8</ele></trkpt>
    <trkpt lat="52.045004" lon="6.098591"><ele>17.8</ele></trkpt>
    <trkpt lat="52.044847" lon="6.098716"><ele>17.7</ele></trkpt>
    <trkpt lat="52.044702" lon="6.098832"><ele>17.6</ele></trkpt>
    <trkpt lat="52.044400" lon="6.099116"><ele>17.5</ele></trkpt>
    <trkpt lat="52.044284" lon="6.099255"><ele>17.5</ele></trkpt>
    <trkpt lat="52.044059" lon="6.099504"><ele>17.4</ele></trkpt>
    <trkpt lat="52.044054" lon="6.099624"><ele>17.3</ele></trkpt>
    <trkpt lat="52.043935" lon="6.099799"><ele>17.3</ele></trkpt>
    <trkpt lat="52.043920" lon="6.099822"><ele>17.3</ele></trkpt>
    <trkpt lat="52.043839" lon="6.099945"><ele>17.3</ele></trkpt>
    <trkpt lat="52.043663" lon="6.100268"><ele>17.2</ele></trkpt>
    <trkpt lat="52.043566" lon="6.100477"><ele>17.1</ele></trkpt>
    <trkpt lat="52.043542" lon="6.100548"><ele>17.1</ele></trkpt>
    <trkpt lat="52.043526" lon="6.100600"><ele>17.0</ele></trkpt>
    <trkpt lat="52.043510" lon="6.100674"><ele>17.0</ele></trkpt>
    <trkpt lat="52.043480" lon="6.100776"><ele>16.9</ele></trkpt>
    <trkpt lat="52.043355" lon="6.101077"><ele>16.9</ele></trkpt>
    <trkpt lat="52.043331" lon="6.101132"><ele>17.0</ele></trkpt>
    <trkpt lat="52.043305" lon="6.101192"><ele>17.1</ele></trkpt>
    <trkpt lat="52.043239" lon="6.101344"><ele>16.8</ele></trkpt>
    <trkpt lat="52.043186" lon="6.101462"><ele>16.8</ele></trkpt>
    <trkpt lat="52.043155" lon="6.101531"><ele>16.7</ele></trkpt>
    <trkpt lat="52.043108" lon="6.101642"><ele>16.5</ele></trkpt>
    <trkpt lat="52.043061" lon="6.101741"><ele>16.4</ele></trkpt>
    <trkpt lat="52.043042" lon="6.101767"><ele>16.4</ele></trkpt>
    <trkpt lat="52.042990" lon="6.101805"><ele>16.2</ele></trkpt>
    <trkpt lat="52.042963" lon="6.101814"><ele>16.1</ele></trkpt>
    <trkpt lat="52.042930" lon="6.101824"><ele>15.9</ele></trkpt>
    <trkpt lat="52.042898" lon="6.101820"><ele>15.9</ele></trkpt>
    <trkpt lat="52.042863" lon="6.101827"><ele>15.8</ele></trkpt>
    <trkpt lat="52.042815" lon="6.101811"><ele>15.7</ele></trkpt>
    <trkpt lat="52.042701" lon="6.101718"><ele>15.6</ele></trkpt>
    <trkpt lat="52.042497" lon="6.101512"><ele>15.6</ele></trkpt>
    <trkpt lat="52.042065" lon="6.101215"><ele>15.3</ele></trkpt>
    <trkpt lat="52.041787" lon="6.101069"><ele>15.1</ele></trkpt>
    <trkpt lat="52.041589" lon="6.100984"><ele>14.9</ele></trkpt>
    <trkpt lat="52.041487" lon="6.100959"><ele>14.9</ele></trkpt>
    <trkpt lat="52.041276" lon="6.100933"><ele>14.8</ele></trkpt>
    <trkpt lat="52.041048" lon="6.100925"><ele>14.8</ele></trkpt>
    <trkpt lat="52.040942" lon="6.100963"><ele>14.7</ele></trkpt>
    <trkpt lat="52.040909" lon="6.101040"><ele>14.6</ele></trkpt>
    <trkpt lat="52.040685" lon="6.102237"><ele>14.1</ele></trkpt>
    <trkpt lat="52.040643" lon="6.102498"><ele>14.2</ele></trkpt>
    <trkpt lat="52.040613" lon="6.102489"><ele>14.2</ele></trkpt>
    <trkpt lat="52.040602" lon="6.102489"><ele>14.2</ele></trkpt>
    <trkpt lat="52.040571" lon="6.102529"><ele>14.3</ele></trkpt>
    <trkpt lat="52.040532" lon="6.102516"><ele>14.3</ele></trkpt>
    <trkpt lat="52.040499" lon="6.102505"><ele>14.3</ele></trkpt>
    <trkpt lat="52.040453" lon="6.102485"><ele>14.2</ele></trkpt>
    <trkpt lat="52.040437" lon="6.102469"><ele>14.1</ele></trkpt>
    <trkpt lat="52.040400" lon="6.102395"><ele>14.0</ele></trkpt>
    <trkpt lat="52.039687" lon="6.100612"><ele>13.9</ele></trkpt>
    <trkpt lat="52.039455" lon="6.100033"><ele>13.9</ele></trkpt>
    <trkpt lat="52.038626" lon="6.097796"><ele>13.9</ele></trkpt>
    <trkpt lat="52.038487" lon="6.097398"><ele>13.9</ele></trkpt>
    <trkpt lat="52.038162" lon="6.096500"><ele>13.9</ele></trkpt>
    <trkpt lat="52.037662" lon="6.095123"><ele>14.6</ele></trkpt>
    <trkpt lat="52.037211" lon="6.093882"><ele>14.4</ele></trkpt>
    <trkpt lat="52.037132" lon="6.093673"><ele>14.4</ele></trkpt>
    <trkpt lat="52.036147" lon="6.090957"><ele>15.9</ele></trkpt>
    <trkpt lat="52.036093" lon="6.090823"><ele>16.0</ele></trkpt>
    <trkpt lat="52.035926" lon="6.090522"><ele>16.3</ele></trkpt>
    <trkpt lat="52.035893" lon="6.090445"><ele>16.4</ele></trkpt>
    <trkpt lat="52.035842" lon="6.090364"><ele>16.6</ele></trkpt>
    <trkpt lat="52.034673" lon="6.088249"><ele>17.6</ele></trkpt>
    <trkpt lat="52.033791" lon="6.086716"><ele>17.0</ele></trkpt>
    <trkpt lat="52.033406" lon="6.086045"><ele>16.6</ele></trkpt>
    <trkpt lat="52.033215" lon="6.085749"><ele>16.2</ele></trkpt>
    <trkpt lat="52.033138" lon="6.085657"><ele>16.1</ele></trkpt>
    <trkpt lat="52.032760" lon="6.084998"><ele>16.0</ele></trkpt>
    <trkpt lat="52.031258" lon="6.082326"><ele>16.4</ele></trkpt>
    <trkpt lat="52.031228" lon="6.082271"><ele>16.4</ele></trkpt>
    <trkpt lat="52.030966" lon="6.081822"><ele>16.9</ele></trkpt>
    <trkpt lat="52.030788" lon="6.081519"><ele>17.1</ele></trkpt>
    <trkpt lat="52.030723" lon="6.081433"><ele>17.2</ele></trkpt>
    <trkpt lat="52.030669" lon="6.081381"><ele>17.3</ele></trkpt>
    <trkpt lat="52.030536" lon="6.081256"><ele>17.5</ele></trkpt>
    <trkpt lat="52.029714" lon="6.080553"><ele>17.0</ele></trkpt>
    <trkpt lat="52.029567" lon="6.080414"><ele>16.8</ele></trkpt>
    <trkpt lat="52.029485" lon="6.080314"><ele>16.7</ele></trkpt>
    <trkpt lat="52.029402" lon="6.080186"><ele>16.5</ele></trkpt>
    <trkpt lat="52.029342" lon="6.080068"><ele>16.5</ele></trkpt>
    <trkpt lat="52.029023" lon="6.079433"><ele>16.5</ele></trkpt>
    <trkpt lat="52.028951" lon="6.079291"><ele>16.5</ele></trkpt>
    <trkpt lat="52.026291" lon="6.073954"><ele>18.4</ele></trkpt>
    <trkpt lat="52.025738" lon="6.072843"><ele>18.8</ele></trkpt>
    <trkpt lat="52.023025" lon="6.067425"><ele>19.3</ele></trkpt>
    <trkpt lat="52.021373" lon="6.064123"><ele>19.0</ele></trkpt>
    <trkpt lat="52.021314" lon="6.064029"><ele>18.9</ele></trkpt>
    <trkpt lat="52.021232" lon="6.063928"><ele>19.0</ele></trkpt>
    <trkpt lat="52.020888" lon="6.063476"><ele>19.0</ele></trkpt>
    <trkpt lat="52.020830" lon="6.063445"><ele>19.0</ele></trkpt>
    <trkpt lat="52.020434" lon="6.062718"><ele>19.2</ele></trkpt>
    <trkpt lat="52.020248" lon="6.062394"><ele>19.1</ele></trkpt>
    <trkpt lat="52.019775" lon="6.061502"><ele>18.8</ele></trkpt>
    <trkpt lat="52.019630" lon="6.061241"><ele>18.8</ele></trkpt>
    <trkpt lat="52.019362" lon="6.060793"><ele>18.5</ele></trkpt>
    <trkpt lat="52.019181" lon="6.060535"><ele>18.4</ele></trkpt>
    <trkpt lat="52.019072" lon="6.060363"><ele>18.3</ele></trkpt>
    <trkpt lat="52.018958" lon="6.060160"><ele>18.2</ele></trkpt>
    <trkpt lat="52.018781" lon="6.059869"><ele>18.0</ele></trkpt>
    <trkpt lat="52.018747" lon="6.059817"><ele>18.0</ele></trkpt>
    <trkpt lat="52.018194" lon="6.058922"><ele>17.4</ele></trkpt>
    <trkpt lat="52.018094" lon="6.058759"><ele>17.3</ele></trkpt>
    <trkpt lat="52.018036" lon="6.058574"><ele>17.0</ele></trkpt>
    <trkpt lat="52.017881" lon="6.058233"><ele>16.8</ele></trkpt>
    <trkpt lat="52.017819" lon="6.058034"><ele>16.6</ele></trkpt>
    <trkpt lat="52.017709" lon="6.057539"><ele>16.4</ele></trkpt>
    <trkpt lat="52.017640" lon="6.057133"><ele>16.1</ele></trkpt>
    <trkpt lat="52.017619" lon="6.057031"><ele>16.1</ele></trkpt>
    <trkpt lat="52.017596" lon="6.056953"><ele>16.0</ele></trkpt>
    <trkpt lat="52.017454" lon="6.056464"><ele>15.6</ele></trkpt>
    <trkpt lat="52.017354" lon="6.056066"><ele>15.6</ele></trkpt>
    <trkpt lat="52.017307" lon="6.055879"><ele>15.6</ele></trkpt>
    <trkpt lat="52.017119" lon="6.055129"><ele>15.6</ele></trkpt>
    <trkpt lat="52.017034" lon="6.054730"><ele>15.7</ele></trkpt>
    <trkpt lat="52.017022" lon="6.054381"><ele>15.6</ele></trkpt>
    <trkpt lat="52.017035" lon="6.053923"><ele>15.3</ele></trkpt>
    <trkpt lat="52.017058" lon="6.053522"><ele>15.5</ele></trkpt>
    <trkpt lat="52.017101" lon="6.053257"><ele>16.0</ele></trkpt>
    <trkpt lat="52.017121" lon="6.052998"><ele>16.5</ele></trkpt>
    <trkpt lat="52.017119" lon="6.052799"><ele>16.8</ele></trkpt>
    <trkpt lat="52.017080" lon="6.052364"><ele>17.4</ele></trkpt>
    <trkpt lat="52.017050" lon="6.052165"><ele>17.7</ele></trkpt>
    <trkpt lat="52.016963" lon="6.051671"><ele>18.4</ele></trkpt>
    <trkpt lat="52.016898" lon="6.051366"><ele>18.8</ele></trkpt>
    <trkpt lat="52.016804" lon="6.050972"><ele>19.3</ele></trkpt>
    <trkpt lat="52.016705" lon="6.050596"><ele>19.8</ele></trkpt>
    <trkpt lat="52.016595" lon="6.050221"><ele>20.3</ele></trkpt>
    <trkpt lat="52.016504" lon="6.050277"><ele>20.0</ele></trkpt>
    <trkpt lat="52.016432" lon="6.050292"><ele>19.8</ele></trkpt>
    <trkpt lat="52.016387" lon="6.050277"><ele>19.8</ele></trkpt>
    <trkpt lat="52.015778" lon="6.049840"><ele>20.4</ele></trkpt>
    <trkpt lat="52.015698" lon="6.049764"><ele>20.4</ele></trkpt>
    <trkpt lat="52.015621" lon="6.049631"><ele>20.5</ele></trkpt>
    <trkpt lat="52.015506" lon="6.049342"><ele>20.6</ele></trkpt>
    <trkpt lat="52.015450" lon="6.049160"><ele>20.6</ele></trkpt>
    <trkpt lat="52.015410" lon="6.048984"><ele>20.6</ele></trkpt>
    <trkpt lat="52.015389" lon="6.048850"><ele>20.6</ele></trkpt>
    <trkpt lat="52.015380" lon="6.048690"><ele>20.6</ele></trkpt>
    <trkpt lat="52.015419" lon="6.048168"><ele>21.0</ele></trkpt>
    <trkpt lat="52.015409" lon="6.047995"><ele>21.2</ele></trkpt>
    <trkpt lat="52.015394" lon="6.047921"><ele>21.2</ele></trkpt>
    <trkpt lat="52.015272" lon="6.047678"><ele>21.2</ele></trkpt>
    <trkpt lat="52.015224" lon="6.047577"><ele>21.2</ele></trkpt>
    <trkpt lat="52.015164" lon="6.047434"><ele>21.3</ele></trkpt>
    <trkpt lat="52.015023" lon="6.047007"><ele>21.3</ele></trkpt>
    <trkpt lat="52.014888" lon="6.046573"><ele>21.2</ele></trkpt>
    <trkpt lat="52.014726" lon="6.045921"><ele>21.1</ele></trkpt>
    <trkpt lat="52.014300" lon="6.044298"><ele>20.4</ele></trkpt>
    <trkpt lat="52.014097" lon="6.043565"><ele>20.4</ele></trkpt>
    <trkpt lat="52.014019" lon="6.043254"><ele>20.5</ele></trkpt>
    <trkpt lat="52.013919" lon="6.042835"><ele>20.4</ele></trkpt>
    <trkpt lat="52.013634" lon="6.041752"><ele>20.5</ele></trkpt>
    <trkpt lat="52.013610" lon="6.041668"><ele>20.5</ele></trkpt>
    <trkpt lat="52.013202" lon="6.040108"><ele>21.1</ele></trkpt>
    <trkpt lat="52.012976" lon="6.039220"><ele>21.5</ele></trkpt>
    <trkpt lat="52.012909" lon="6.038961"><ele>21.7</ele></trkpt>
    <trkpt lat="52.012513" lon="6.037487"><ele>22.1</ele></trkpt>
    <trkpt lat="52.012394" lon="6.037020"><ele>22.1</ele></trkpt>
    <trkpt lat="52.012314" lon="6.036760"><ele>22.1</ele></trkpt>
    <trkpt lat="52.012270" lon="6.036573"><ele>22.1</ele></trkpt>
    <trkpt lat="52.012239" lon="6.036444"><ele>22.1</ele></trkpt>
    <trkpt lat="52.011602" lon="6.033945"><ele>23.2</ele></trkpt>
    <trkpt lat="52.011031" lon="6.031778"><ele>24.3</ele></trkpt>
    <trkpt lat="52.010973" lon="6.031600"><ele>24.3</ele></trkpt>
    <trkpt lat="52.010961" lon="6.031539"><ele>24.3</ele></trkpt>
    <trkpt lat="52.010941" lon="6.031457"><ele>24.2</ele></trkpt>
  </trkseg></trk>
</gpx>
