<?xml version="1.0" encoding="UTF-8"?>
<gpx version="1.1" creator="osscycler demo" xmlns="http://www.topografix.com/GPX/1/1">
  <metadata><name>Demo Hills</name></metadata>
  <trk><name>Demo Hills</name><trkseg>
    <trkpt lat="52.0000000" lon="5.0000000"><ele>20.00</ele></trkpt>
    <trkpt lat="52.0000450" lon="5.0000000"><ele>20.02</ele></trkpt>
    <trkpt lat="52.0000899" lon="5.0000000"><ele>20.05</ele></trkpt>
    <trkpt lat="52.0001349" lon="5.0000000"><ele>20.07</ele></trkpt>
    <trkpt lat="52.0001799" lon="5.0000000"><ele>20.10</ele></trkpt>
    <trkpt lat="52.0002248" lon="5.0000000"><ele>20.12</ele></trkpt>
    <trkpt lat="52.0002698" lon="5.0000000"><ele>20.15</ele></trkpt>
    <trkpt lat="52.0003148" lon="5.0000000"><ele>20.17</ele></trkpt>
    <trkpt lat="52.0003597" lon="5.0000000"><ele>20.20</ele></trkpt>
    <trkpt lat="52.0004047" lon="5.0000000"><ele>20.22</ele></trkpt>
    <trkpt lat="52.0004497" lon="5.0000000"><ele>20.25</ele></trkpt>
    <trkpt lat="52.0004946" lon="5.0000000"><ele>20.27</ele></trkpt>
    <trkpt lat="52.0005396" lon="5.0000000"><ele>20.30</ele></trkpt>
    <trkpt lat="52.0005846" lon="5.0000000"><ele>20.32</ele></trkpt>
    <trkpt lat="52.0006295" lon="5.0000000"><ele>20.35</ele></trkpt>
    <trkpt lat="52.0006745" lon="5.0000000"><ele>20.37</ele></trkpt>
    <trkpt lat="52.0007195" lon="5.0000000"><ele>20.40</ele></trkpt>
    <trkpt lat="52.0007644" lon="5.0000000"><ele>20.42</ele></trkpt>
    <trkpt lat="52.0008094" lon="5.0000000"><ele>20.45</ele></trkpt>
    <trkpt lat="52.0008544" lon="5.0000000"><ele>20.47</ele></trkpt>
    <trkpt lat="52.0008993" lon="5.0000000"><ele>20.50</ele></trkpt>
    <trkpt lat="52.0009443" lon="5.0000000"><ele>20.52</ele></trkpt>
    <trkpt lat="52.0009893" lon="5.0000000"><ele>20.55</ele></trkpt>
    <trkpt lat="52.0010342" lon="5.0000000"><ele>20.57</ele></trkpt>
    <trkpt lat="52.0010792" lon="5.0000000"><ele>20.60</ele></trkpt>
    <trkpt lat="52.0011242" lon="5.0000000"><ele>20.62</ele></trkpt>
    <trkpt lat="52.0011691" lon="5.0000000"><ele>20.65</ele></trkpt>
    <trkpt lat="52.0012141" lon="5.0000000"><ele>20.67</ele></trkpt>
    <trkpt lat="52.0012591" lon="5.0000000"><ele>20.70</ele></trkpt>
    <trkpt lat="52.0013040" lon="5.0000000"><ele>20.72</ele></trkpt>
    <trkpt lat="52.0013490" lon="5.0000000"><ele>20.75</ele></trkpt>
    <trkpt lat="52.0013939" lon="5.0000000"><ele>20.77</ele></trkpt>
    <trkpt lat="52.0014389" lon="5.0000000"><ele>20.80</ele></trkpt>
    <trkpt lat="52.0014839" lon="5.0000000"><ele>20.82</ele></trkpt>
    <trkpt lat="52.0015288" lon="5.0000000"><ele>20.85</ele></trkpt>
    <trkpt lat="52.0015738" lon="5.0000000"><ele>20.87</ele></trkpt>
    <trkpt lat="52.0016188" lon="5.0000000"><ele>20.90</ele></trkpt>
    <trkpt lat="52.0016637" lon="5.0000000"><ele>20.92</ele></trkpt>
    <trkpt lat="52.0017087" lon="5.0000000"><ele>20.95</ele></trkpt>
    <trkpt lat="52.0017537" lon="5.0000000"><ele>20.97</ele></trkpt>
    <trkpt lat="52.0017986" lon="5.0000000"><ele>21.00</ele></trkpt>
    <trkpt lat="52.0018436" lon="5.0000000"><ele>21.02</ele></trkpt>
    <trkpt lat="52.0018886" lon="5.0000000"><ele>21.05</ele></trkpt>
    <trkpt lat="52.0019335" lon="5.0000000"><ele>21.07</ele></trkpt>
    <trkpt lat="52.0019785" lon="5.0000000"><ele>21.10</ele></trkpt>
    <trkpt lat="52.0020235" lon="5.0000000"><ele>21.12</ele></trkpt>
    <trkpt lat="52.0020684" lon="5.0000000"><ele>21.15</ele></trkpt>
    <trkpt lat="52.0021134" lon="5.0000000"><ele>21.17</ele></trkpt>
    <trkpt lat="52.0021584" lon="5.0000000"><ele>21.20</ele></trkpt>
    <trkpt lat="52.0022033" lon="5.0000000"><ele>21.22</ele></trkpt>
    <trkpt lat="52.0022483" lon="5.0000000"><ele>21.25</ele></trkpt>
    <trkpt lat="52.0022933" lon="5.0000000"><ele>21.27</ele></trkpt>
    <trkpt lat="52.0023382" lon="5.0000000"><ele>21.30</ele></trkpt>
    <trkpt lat="52.0023832" lon="5.0000000"><ele>21.32</ele></trkpt>
    <trkpt lat="52.0024282" lon="5.0000000"><ele>21.35</ele></trkpt>
    <trkpt lat="52.0024731" lon="5.0000000"><ele>21.37</ele></trkpt>
    <trkpt lat="52.0025181" lon="5.0000000"><ele>21.40</ele></trkpt>
    <trkpt lat="52.0025631" lon="5.0000000"><ele>21.42</ele></trkpt>
    <trkpt lat="52.0026080" lon="5.0000000"><ele>21.45</ele></trkpt>
    <trkpt lat="52.0026530" lon="5.0000000"><ele>21.47</ele></trkpt>
    <trkpt lat="52.0026980" lon="5.0000000"><ele>21.50</ele></trkpt>
    <trkpt lat="52.0027429" lon="5.0000000"><ele>21.52</ele></trkpt>
    <trkpt lat="52.0027879" lon="5.0000000"><ele>21.55</ele></trkpt>
    <trkpt lat="52.0028329" lon="5.0000000"><ele>21.57</ele></trkpt>
    <trkpt lat="52.0028778" lon="5.0000000"><ele>21.60</ele></trkpt>
    <trkpt lat="52.0029228" lon="5.0000000"><ele>21.62</ele></trkpt>
    <trkpt lat="52.0029678" lon="5.0000000"><ele>21.65</ele></trkpt>
    <trkpt lat="52.0030127" lon="5.0000000"><ele>21.67</ele></trkpt>
    <trkpt lat="52.0030577" lon="5.0000000"><ele>21.70</ele></trkpt>
    <trkpt lat="52.0031027" lon="5.0000000"><ele>21.72</ele></trkpt>
    <trkpt lat="52.0031476" lon="5.0000000"><ele>21.75</ele></trkpt>
    <trkpt lat="52.0031926" lon="5.0000000"><ele>21.77</ele></trkpt>
    <trkpt lat="52.0032376" lon="5.0000000"><ele>21.80</ele></trkpt>
    <trkpt lat="52.0032825" lon="5.0000000"><ele>21.82</ele></trkpt>
    <trkpt lat="52.0033275" lon="5.0000000"><ele>21.85</ele></trkpt>
    <trkpt lat="52.0033725" lon="5.0000000"><ele>21.87</ele></trkpt>
    <trkpt lat="52.0034174" lon="5.0000000"><ele>21.90</ele></trkpt>
    <trkpt lat="52.0034624" lon="5.0000000"><ele>21.92</ele></trkpt>
    <trkpt lat="52.0035074" lon="5.0000000"><ele>21.95</ele></trkpt>
    <trkpt lat="52.0035523" lon="5.0000000"><ele>21.97</ele></trkpt>
    <trkpt lat="52.0035973" lon="5.0000000"><ele>22.00</ele></trkpt>
    <trkpt lat="52.0036423" lon="5.0000000"><ele>22.20</ele></trkpt>
    <trkpt lat="52.0036872" lon="5.0000000"><ele>22.40</ele></trkpt>
    <trkpt lat="52.0037322" lon="5.0000000"><ele>22.60</ele></trkpt>
    <trkpt lat="52.0037772" lon="5.0000000"><ele>22.80</ele></trkpt>
    <trkpt lat="52.0038221" lon="5.0000000"><ele>23.00</ele></trkpt>
    <trkpt lat="52.0038671" lon="5.0000000"><ele>23.20</ele></trkpt>
    <trkpt lat="52.0039120" lon="5.0000000"><ele>23.40</ele></trkpt>
    <trkpt lat="52.0039570" lon="5.0000000"><ele>23.60</ele></trkpt>
    <trkpt lat="52.0040020" lon="5.0000000"><ele>23.80</ele></trkpt>
    <trkpt lat="52.0040469" lon="5.0000000"><ele>24.00</ele></trkpt>
    <trkpt lat="52.0040919" lon="5.0000000"><ele>24.20</ele></trkpt>
    <trkpt lat="52.0041369" lon="5.0000000"><ele>24.40</ele></trkpt>
    <trkpt lat="52.0041818" lon="5.0000000"><ele>24.60</ele></trkpt>
    <trkpt lat="52.0042268" lon="5.0000000"><ele>24.80</ele></trkpt>
    <trkpt lat="52.0042718" lon="5.0000000"><ele>25.00</ele></trkpt>
    <trkpt lat="52.0043167" lon="5.0000000"><ele>25.20</ele></trkpt>
    <trkpt lat="52.0043617" lon="5.0000000"><ele>25.40</ele></trkpt>
    <trkpt lat="52.0044067" lon="5.0000000"><ele>25.60</ele></trkpt>
    <trkpt lat="52.0044516" lon="5.0000000"><ele>25.80</ele></trkpt>
    <trkpt lat="52.0044966" lon="5.0000000"><ele>26.00</ele></trkpt>
    <trkpt lat="52.0045416" lon="5.0000000"><ele>26.20</ele></trkpt>
    <trkpt lat="52.0045865" lon="5.0000000"><ele>26.40</ele></trkpt>
    <trkpt lat="52.0046315" lon="5.0000000"><ele>26.60</ele></trkpt>
    <trkpt lat="52.0046765" lon="5.0000000"><ele>26.80</ele></trkpt>
    <trkpt lat="52.0047214" lon="5.0000000"><ele>27.00</ele></trkpt>
    <trkpt lat="52.0047664" lon="5.0000000"><ele>27.20</ele></trkpt>
    <trkpt lat="52.0048114" lon="5.0000000"><ele>27.40</ele></trkpt>
    <trkpt lat="52.0048563" lon="5.0000000"><ele>27.60</ele></trkpt>
    <trkpt lat="52.0049013" lon="5.0000000"><ele>27.80</ele></trkpt>
    <trkpt lat="52.0049463" lon="5.0000000"><ele>28.00</ele></trkpt>
    <trkpt lat="52.0049912" lon="5.0000000"><ele>28.20</ele></trkpt>
    <trkpt lat="52.0050362" lon="5.0000000"><ele>28.40</ele></trkpt>
    <trkpt lat="52.0050812" lon="5.0000000"><ele>28.60</ele></trkpt>
    <trkpt lat="52.0051261" lon="5.0000000"><ele>28.80</ele></trkpt>
    <trkpt lat="52.0051711" lon="5.0000000"><ele>29.00</ele></trkpt>
    <trkpt lat="52.0052161" lon="5.0000000"><ele>29.20</ele></trkpt>
    <trkpt lat="52.0052610" lon="5.0000000"><ele>29.40</ele></trkpt>
    <trkpt lat="52.0053060" lon="5.0000000"><ele>29.60</ele></trkpt>
    <trkpt lat="52.0053510" lon="5.0000000"><ele>29.80</ele></trkpt>
    <trkpt lat="52.0053959" lon="5.0000000"><ele>30.00</ele></trkpt>
    <trkpt lat="52.0054409" lon="5.0000000"><ele>30.20</ele></trkpt>
    <trkpt lat="52.0054859" lon="5.0000000"><ele>30.40</ele></trkpt>
    <trkpt lat="52.0055308" lon="5.0000000"><ele>30.60</ele></trkpt>
    <trkpt lat="52.0055758" lon="5.0000000"><ele>30.80</ele></trkpt>
    <trkpt lat="52.0056208" lon="5.0000000"><ele>31.00</ele></trkpt>
    <trkpt lat="52.0056657" lon="5.0000000"><ele>31.20</ele></trkpt>
    <trkpt lat="52.0057107" lon="5.0000000"><ele>31.40</ele></trkpt>
    <trkpt lat="52.0057557" lon="5.0000000"><ele>31.60</ele></trkpt>
    <trkpt lat="52.0058006" lon="5.0000000"><ele>31.80</ele></trkpt>
    <trkpt lat="52.0058456" lon="5.0000000"><ele>32.00</ele></trkpt>
    <trkpt lat="52.0058906" lon="5.0000000"><ele>32.20</ele></trkpt>
    <trkpt lat="52.0059355" lon="5.0000000"><ele>32.40</ele></trkpt>
    <trkpt lat="52.0059805" lon="5.0000000"><ele>32.60</ele></trkpt>
    <trkpt lat="52.0060255" lon="5.0000000"><ele>32.80</ele></trkpt>
    <trkpt lat="52.0060704" lon="5.0000000"><ele>33.00</ele></trkpt>
    <trkpt lat="52.0061154" lon="5.0000000"><ele>33.20</ele></trkpt>
    <trkpt lat="52.0061604" lon="5.0000000"><ele>33.40</ele></trkpt>
    <trkpt lat="52.0062053" lon="5.0000000"><ele>33.60</ele></trkpt>
    <trkpt lat="52.0062503" lon="5.0000000"><ele>33.80</ele></trkpt>
    <trkpt lat="52.0062953" lon="5.0000000"><ele>34.00</ele></trkpt>
    <trkpt lat="52.0063402" lon="5.0000000"><ele>34.35</ele></trkpt>
    <trkpt lat="52.0063852" lon="5.0000000"><ele>34.70</ele></trkpt>
    <trkpt lat="52.0064301" lon="5.0000000"><ele>35.05</ele></trkpt>
    <trkpt lat="52.0064751" lon="5.0000000"><ele>35.40</ele></trkpt>
    <trkpt lat="52.0065201" lon="5.0000000"><ele>35.75</ele></trkpt>
    <trkpt lat="52.0065650" lon="5.0000000"><ele>36.10</ele></trkpt>
    <trkpt lat="52.0066100" lon="5.0000000"><ele>36.45</ele></trkpt>
    <trkpt lat="52.0066550" lon="5.0000000"><ele>36.80</ele></trkpt>
    <trkpt lat="52.0066999" lon="5.0000000"><ele>37.15</ele></trkpt>
    <trkpt lat="52.0067449" lon="5.0000000"><ele>37.50</ele></trkpt>
    <trkpt lat="52.0067899" lon="5.0000000"><ele>37.85</ele></trkpt>
    <trkpt lat="52.0068348" lon="5.0000000"><ele>38.20</ele></trkpt>
    <trkpt lat="52.0068798" lon="5.0000000"><ele>38.55</ele></trkpt>
    <trkpt lat="52.0069248" lon="5.0000000"><ele>38.90</ele></trkpt>
    <trkpt lat="52.0069697" lon="5.0000000"><ele>39.25</ele></trkpt>
    <trkpt lat="52.0070147" lon="5.0000000"><ele>39.60</ele></trkpt>
    <trkpt lat="52.0070597" lon="5.0000000"><ele>39.95</ele></trkpt>
    <trkpt lat="52.0071046" lon="5.0000000"><ele>40.30</ele></trkpt>
    <trkpt lat="52.0071496" lon="5.0000000"><ele>40.65</ele></trkpt>
    <trkpt lat="52.0071946" lon="5.0000000"><ele>41.00</ele></trkpt>
    <trkpt lat="52.0072395" lon="5.0000000"><ele>41.35</ele></trkpt>
    <trkpt lat="52.0072845" lon="5.0000000"><ele>41.70</ele></trkpt>
    <trkpt lat="52.0073295" lon="5.0000000"><ele>42.05</ele></trkpt>
    <trkpt lat="52.0073744" lon="5.0000000"><ele>42.40</ele></trkpt>
    <trkpt lat="52.0074194" lon="5.0000000"><ele>42.75</ele></trkpt>
    <trkpt lat="52.0074644" lon="5.0000000"><ele>43.10</ele></trkpt>
    <trkpt lat="52.0075093" lon="5.0000000"><ele>43.45</ele></trkpt>
    <trkpt lat="52.0075543" lon="5.0000000"><ele>43.80</ele></trkpt>
    <trkpt lat="52.0075993" lon="5.0000000"><ele>44.15</ele></trkpt>
    <trkpt lat="52.0076442" lon="5.0000000"><ele>44.50</ele></trkpt>
    <trkpt lat="52.0076892" lon="5.0000000"><ele>44.85</ele></trkpt>
    <trkpt lat="52.0077342" lon="5.0000000"><ele>45.20</ele></trkpt>
    <trkpt lat="52.0077791" lon="5.0000000"><ele>45.55</ele></trkpt>
    <trkpt lat="52.0078241" lon="5.0000000"><ele>45.90</ele></trkpt>
    <trkpt lat="52.0078691" lon="5.0000000"><ele>46.25</ele></trkpt>
    <trkpt lat="52.0079140" lon="5.0000000"><ele>46.60</ele></trkpt>
    <trkpt lat="52.0079590" lon="5.0000000"><ele>46.95</ele></trkpt>
    <trkpt lat="52.0080040" lon="5.0000000"><ele>47.30</ele></trkpt>
    <trkpt lat="52.0080489" lon="5.0000000"><ele>47.65</ele></trkpt>
    <trkpt lat="52.0080939" lon="5.0000000"><ele>48.00</ele></trkpt>
    <trkpt lat="52.0081389" lon="5.0000000"><ele>48.35</ele></trkpt>
    <trkpt lat="52.0081838" lon="5.0000000"><ele>48.70</ele></trkpt>
    <trkpt lat="52.0082288" lon="5.0000000"><ele>49.05</ele></trkpt>
    <trkpt lat="52.0082738" lon="5.0000000"><ele>49.40</ele></trkpt>
    <trkpt lat="52.0083187" lon="5.0000000"><ele>49.75</ele></trkpt>
    <trkpt lat="52.0083637" lon="5.0000000"><ele>50.10</ele></trkpt>
    <trkpt lat="52.0084087" lon="5.0000000"><ele>50.45</ele></trkpt>
    <trkpt lat="52.0084536" lon="5.0000000"><ele>50.80</ele></trkpt>
    <trkpt lat="52.0084986" lon="5.0000000"><ele>51.15</ele></trkpt>
    <trkpt lat="52.0085436" lon="5.0000000"><ele>51.50</ele></trkpt>
    <trkpt lat="52.0085885" lon="5.0000000"><ele>51.85</ele></trkpt>
    <trkpt lat="52.0086335" lon="5.0000000"><ele>52.20</ele></trkpt>
    <trkpt lat="52.0086785" lon="5.0000000"><ele>52.55</ele></trkpt>
    <trkpt lat="52.0087234" lon="5.0000000"><ele>52.90</ele></trkpt>
    <trkpt lat="52.0087684" lon="5.0000000"><ele>53.25</ele></trkpt>
    <trkpt lat="52.0088134" lon="5.0000000"><ele>53.60</ele></trkpt>
    <trkpt lat="52.0088583" lon="5.0000000"><ele>53.95</ele></trkpt>
    <trkpt lat="52.0089033" lon="5.0000000"><ele>54.30</ele></trkpt>
    <trkpt lat="52.0089482" lon="5.0000000"><ele>54.65</ele></trkpt>
    <trkpt lat="52.0089932" lon="5.0000000"><ele>55.00</ele></trkpt>
    <trkpt lat="52.0090382" lon="5.0000000"><ele>55.35</ele></trkpt>
    <trkpt lat="52.0090831" lon="5.0000000"><ele>55.70</ele></trkpt>
    <trkpt lat="52.0091281" lon="5.0000000"><ele>56.05</ele></trkpt>
    <trkpt lat="52.0091731" lon="5.0000000"><ele>56.40</ele></trkpt>
    <trkpt lat="52.0092180" lon="5.0000000"><ele>56.75</ele></trkpt>
    <trkpt lat="52.0092630" lon="5.0000000"><ele>57.10</ele></trkpt>
    <trkpt lat="52.0093080" lon="5.0000000"><ele>57.45</ele></trkpt>
    <trkpt lat="52.0093529" lon="5.0000000"><ele>57.80</ele></trkpt>
    <trkpt lat="52.0093979" lon="5.0000000"><ele>58.15</ele></trkpt>
    <trkpt lat="52.0094429" lon="5.0000000"><ele>58.50</ele></trkpt>
    <trkpt lat="52.0094878" lon="5.0000000"><ele>58.85</ele></trkpt>
    <trkpt lat="52.0095328" lon="5.0000000"><ele>59.20</ele></trkpt>
    <trkpt lat="52.0095778" lon="5.0000000"><ele>59.55</ele></trkpt>
    <trkpt lat="52.0096227" lon="5.0000000"><ele>59.90</ele></trkpt>
    <trkpt lat="52.0096677" lon="5.0000000"><ele>60.25</ele></trkpt>
    <trkpt lat="52.0097127" lon="5.0000000"><ele>60.60</ele></trkpt>
    <trkpt lat="52.0097576" lon="5.0000000"><ele>60.95</ele></trkpt>
    <trkpt lat="52.0098026" lon="5.0000000"><ele>61.30</ele></trkpt>
    <trkpt lat="52.0098476" lon="5.0000000"><ele>61.65</ele></trkpt>
    <trkpt lat="52.0098925" lon="5.0000000"><ele>62.00</ele></trkpt>
    <trkpt lat="52.0099375" lon="5.0000000"><ele>62.35</ele></trkpt>
    <trkpt lat="52.0099825" lon="5.0000000"><ele>62.70</ele></trkpt>
    <trkpt lat="52.0100274" lon="5.0000000"><ele>63.05</ele></trkpt>
    <trkpt lat="52.0100724" lon="5.0000000"><ele>63.40</ele></trkpt>
    <trkpt lat="52.0101174" lon="5.0000000"><ele>63.75</ele></trkpt>
    <trkpt lat="52.0101623" lon="5.0000000"><ele>64.10</ele></trkpt>
    <trkpt lat="52.0102073" lon="5.0000000"><ele>64.45</ele></trkpt>
    <trkpt lat="52.0102523" lon="5.0000000"><ele>64.80</ele></trkpt>
    <trkpt lat="52.0102972" lon="5.0000000"><ele>65.15</ele></trkpt>
    <trkpt lat="52.0103422" lon="5.0000000"><ele>65.50</ele></trkpt>
    <trkpt lat="52.0103872" lon="5.0000000"><ele>65.85</ele></trkpt>
    <trkpt lat="52.0104321" lon="5.0000000"><ele>66.20</ele></trkpt>
    <trkpt lat="52.0104771" lon="5.0000000"><ele>66.55</ele></trkpt>
    <trkpt lat="52.0105221" lon="5.0000000"><ele>66.90</ele></trkpt>
    <trkpt lat="52.0105670" lon="5.0000000"><ele>67.25</ele></trkpt>
    <trkpt lat="52.0106120" lon="5.0000000"><ele>67.60</ele></trkpt>
    <trkpt lat="52.0106570" lon="5.0000000"><ele>67.95</ele></trkpt>
    <trkpt lat="52.0107019" lon="5.0000000"><ele>68.30</ele></trkpt>
    <trkpt lat="52.0107469" lon="5.0000000"><ele>68.65</ele></trkpt>
    <trkpt lat="52.0107919" lon="5.0000000"><ele>69.00</ele></trkpt>
    <trkpt lat="52.0108368" lon="5.0000000"><ele>69.35</ele></trkpt>
    <trkpt lat="52.0108818" lon="5.0000000"><ele>69.70</ele></trkpt>
    <trkpt lat="52.0109268" lon="5.0000000"><ele>70.05</ele></trkpt>
    <trkpt lat="52.0109717" lon="5.0000000"><ele>70.40</ele></trkpt>
    <trkpt lat="52.0110167" lon="5.0000000"><ele>70.75</ele></trkpt>
    <trkpt lat="52.0110617" lon="5.0000000"><ele>71.10</ele></trkpt>
    <trkpt lat="52.0111066" lon="5.0000000"><ele>71.45</ele></trkpt>
    <trkpt lat="52.0111516" lon="5.0000000"><ele>71.80</ele></trkpt>
    <trkpt lat="52.0111966" lon="5.0000000"><ele>72.15</ele></trkpt>
    <trkpt lat="52.0112415" lon="5.0000000"><ele>72.50</ele></trkpt>
    <trkpt lat="52.0112865" lon="5.0000000"><ele>72.85</ele></trkpt>
    <trkpt lat="52.0113315" lon="5.0000000"><ele>73.20</ele></trkpt>
    <trkpt lat="52.0113764" lon="5.0000000"><ele>73.55</ele></trkpt>
    <trkpt lat="52.0114214" lon="5.0000000"><ele>73.90</ele></trkpt>
    <trkpt lat="52.0114664" lon="5.0000000"><ele>74.25</ele></trkpt>
    <trkpt lat="52.0115113" lon="5.0000000"><ele>74.60</ele></trkpt>
    <trkpt lat="52.0115563" lon="5.0000000"><ele>74.95</ele></trkpt>
    <trkpt lat="52.0116012" lon="5.0000000"><ele>75.30</ele></trkpt>
    <trkpt lat="52.0116462" lon="5.0000000"><ele>75.65</ele></trkpt>
    <trkpt lat="52.0116912" lon="5.0000000"><ele>76.00</ele></trkpt>
    <trkpt lat="52.0117361" lon="5.0000000"><ele>76.45</ele></trkpt>
    <trkpt lat="52.0117811" lon="5.0000000"><ele>76.90</ele></trkpt>
    <trkpt lat="52.0118261" lon="5.0000000"><ele>77.35</ele></trkpt>
    <trkpt lat="52.0118710" lon="5.0000000"><ele>77.80</ele></trkpt>
    <trkpt lat="52.0119160" lon="5.0000000"><ele>78.25</ele></trkpt>
    <trkpt lat="52.0119610" lon="5.0000000"><ele>78.70</ele></trkpt>
    <trkpt lat="52.0120059" lon="5.0000000"><ele>79.15</ele></trkpt>
    <trkpt lat="52.0120509" lon="5.0000000"><ele>79.60</ele></trkpt>
    <trkpt lat="52.0120959" lon="5.0000000"><ele>80.05</ele></trkpt>
    <trkpt lat="52.0121408" lon="5.0000000"><ele>80.50</ele></trkpt>
    <trkpt lat="52.0121858" lon="5.0000000"><ele>80.95</ele></trkpt>
    <trkpt lat="52.0122308" lon="5.0000000"><ele>81.40</ele></trkpt>
    <trkpt lat="52.0122757" lon="5.0000000"><ele>81.85</ele></trkpt>
    <trkpt lat="52.0123207" lon="5.0000000"><ele>82.30</ele></trkpt>
    <trkpt lat="52.0123657" lon="5.0000000"><ele>82.75</ele></trkpt>
    <trkpt lat="52.0124106" lon="5.0000000"><ele>83.20</ele></trkpt>
    <trkpt lat="52.0124556" lon="5.0000000"><ele>83.65</ele></trkpt>
    <trkpt lat="52.0125006" lon="5.0000000"><ele>84.10</ele></trkpt>
    <trkpt lat="52.0125455" lon="5.0000000"><ele>84.55</ele></trkpt>
    <trkpt lat="52.0125905" lon="5.0000000"><ele>85.00</ele></trkpt>
    <trkpt lat="52.0126355" lon="5.0000000"><ele>85.45</ele></trkpt>
    <trkpt lat="52.0126804" lon="5.0000000"><ele>85.90</ele></trkpt>
    <trkpt lat="52.0127254" lon="5.0000000"><ele>86.35</ele></trkpt>
    <trkpt lat="52.0127704" lon="5.0000000"><ele>86.80</ele></trkpt>
    <trkpt lat="52.0128153" lon="5.0000000"><ele>87.25</ele></trkpt>
    <trkpt lat="52.0128603" lon="5.0000000"><ele>87.70</ele></trkpt>
    <trkpt lat="52.0129053" lon="5.0000000"><ele>88.15</ele></trkpt>
    <trkpt lat="52.0129502" lon="5.0000000"><ele>88.60</ele></trkpt>
    <trkpt lat="52.0129952" lon="5.0000000"><ele>89.05</ele></trkpt>
    <trkpt lat="52.0130402" lon="5.0000000"><ele>89.50</ele></trkpt>
    <trkpt lat="52.0130851" lon="5.0000000"><ele>89.95</ele></trkpt>
    <trkpt lat="52.0131301" lon="5.0000000"><ele>90.40</ele></trkpt>
    <trkpt lat="52.0131751" lon="5.0000000"><ele>90.85</ele></trkpt>
    <trkpt lat="52.0132200" lon="5.0000000"><ele>91.30</ele></trkpt>
    <trkpt lat="52.0132650" lon="5.0000000"><ele>91.75</ele></trkpt>
    <trkpt lat="52.0133100" lon="5.0000000"><ele>92.20</ele></trkpt>
    <trkpt lat="52.0133549" lon="5.0000000"><ele>92.65</ele></trkpt>
    <trkpt lat="52.0133999" lon="5.0000000"><ele>93.10</ele></trkpt>
    <trkpt lat="52.0134449" lon="5.0000000"><ele>93.55</ele></trkpt>
    <trkpt lat="52.0134898" lon="5.0000000"><ele>94.00</ele></trkpt>
    <trkpt lat="52.0135348" lon="5.0000000"><ele>93.75</ele></trkpt>
    <trkpt lat="52.0135798" lon="5.0000000"><ele>93.50</ele></trkpt>
    <trkpt lat="52.0136247" lon="5.0000000"><ele>93.25</ele></trkpt>
    <trkpt lat="52.0136697" lon="5.0000000"><ele>93.00</ele></trkpt>
    <trkpt lat="52.0137147" lon="5.0000000"><ele>92.75</ele></trkpt>
    <trkpt lat="52.0137596" lon="5.0000000"><ele>92.50</ele></trkpt>
    <trkpt lat="52.0138046" lon="5.0000000"><ele>92.25</ele></trkpt>
    <trkpt lat="52.0138496" lon="5.0000000"><ele>92.00</ele></trkpt>
    <trkpt lat="52.0138945" lon="5.0000000"><ele>91.75</ele></trkpt>
    <trkpt lat="52.0139395" lon="5.0000000"><ele>91.50</ele></trkpt>
    <trkpt lat="52.0139845" lon="5.0000000"><ele>91.25</ele></trkpt>
    <trkpt lat="52.0140294" lon="5.0000000"><ele>91.00</ele></trkpt>
    <trkpt lat="52.0140744" lon="5.0000000"><ele>90.75</ele></trkpt>
    <trkpt lat="52.0141193" lon="5.0000000"><ele>90.50</ele></trkpt>
    <trkpt lat="52.0141643" lon="5.0000000"><ele>90.25</ele></trkpt>
    <trkpt lat="52.0142093" lon="5.0000000"><ele>90.00</ele></trkpt>
    <trkpt lat="52.0142542" lon="5.0000000"><ele>89.75</ele></trkpt>
    <trkpt lat="52.0142992" lon="5.0000000"><ele>89.50</ele></trkpt>
    <trkpt lat="52.0143442" lon="5.0000000"><ele>89.25</ele></trkpt>
    <trkpt lat="52.0143891" lon="5.0000000"><ele>89.00</ele></trkpt>
    <trkpt lat="52.0144341" lon="5.0000000"><ele>88.75</ele></trkpt>
    <trkpt lat="52.0144791" lon="5.0000000"><ele>88.50</ele></trkpt>
    <trkpt lat="52.0145240" lon="5.0000000"><ele>88.25</ele></trkpt>
    <trkpt lat="52.0145690" lon="5.0000000"><ele>88.00</ele></trkpt>
    <trkpt lat="52.0146140" lon="5.0000000"><ele>87.75</ele></trkpt>
    <trkpt lat="52.0146589" lon="5.0000000"><ele>87.50</ele></trkpt>
    <trkpt lat="52.0147039" lon="5.0000000"><ele>87.25</ele></trkpt>
    <trkpt lat="52.0147489" lon="5.0000000"><ele>87.00</ele></trkpt>
    <trkpt lat="52.0147938" lon="5.0000000"><ele>86.75</ele></trkpt>
    <trkpt lat="52.0148388" lon="5.0000000"><ele>86.50</ele></trkpt>
    <trkpt lat="52.0148838" lon="5.0000000"><ele>86.25</ele></trkpt>
    <trkpt lat="52.0149287" lon="5.0000000"><ele>86.00</ele></trkpt>
    <trkpt lat="52.0149737" lon="5.0000000"><ele>85.75</ele></trkpt>
    <trkpt lat="52.0150187" lon="5.0000000"><ele>85.50</ele></trkpt>
    <trkpt lat="52.0150636" lon="5.0000000"><ele>85.25</ele></trkpt>
    <trkpt lat="52.0151086" lon="5.0000000"><ele>85.00</ele></trkpt>
    <trkpt lat="52.0151536" lon="5.0000000"><ele>84.75</ele></trkpt>
    <trkpt lat="52.0151985" lon="5.0000000"><ele>84.50</ele></trkpt>
    <trkpt lat="52.0152435" lon="5.0000000"><ele>84.25</ele></trkpt>
    <trkpt lat="52.0152885" lon="5.0000000"><ele>84.00</ele></trkpt>
    <trkpt lat="52.0153334" lon="5.0000000"><ele>83.75</ele></trkpt>
    <trkpt lat="52.0153784" lon="5.0000000"><ele>83.50</ele></trkpt>
    <trkpt lat="52.0154234" lon="5.0000000"><ele>83.25</ele></trkpt>
    <trkpt lat="52.0154683" lon="5.0000000"><ele>83.00</ele></trkpt>
    <trkpt lat="52.0155133" lon="5.0000000"><ele>82.75</ele></trkpt>
    <trkpt lat="52.0155583" lon="5.0000000"><ele>82.50</ele></trkpt>
    <trkpt lat="52.0156032" lon="5.0000000"><ele>82.25</ele></trkpt>
    <trkpt lat="52.0156482" lon="5.0000000"><ele>82.00</ele></trkpt>
    <trkpt lat="52.0156932" lon="5.0000000"><ele>81.75</ele></trkpt>
    <trkpt lat="52.0157381" lon="5.0000000"><ele>81.50</ele></trkpt>
    <trkpt lat="52.0157831" lon="5.0000000"><ele>81.25</ele></trkpt>
    <trkpt lat="52.0158281" lon="5.0000000"><ele>81.00</ele></trkpt>
    <trkpt lat="52.0158730" lon="5.0000000"><ele>80.75</ele></trkpt>
    <trkpt lat="52.0159180" lon="5.0000000"><ele>80.50</ele></trkpt>
    <trkpt lat="52.0159630" lon="5.0000000"><ele>80.25</ele></trkpt>
    <trkpt lat="52.0160079" lon="5.0000000"><ele>80.00</ele></trkpt>
    <trkpt lat="52.0160529" lon="5.0000000"><ele>79.75</ele></trkpt>
    <trkpt lat="52.0160979" lon="5.0000000"><ele>79.50</ele></trkpt>
    <trkpt lat="52.0161428" lon="5.0000000"><ele>79.25</ele></trkpt>
    <trkpt lat="52.0161878" lon="5.0000000"><ele>79.00</ele></trkpt>
    <trkpt lat="52.0162328" lon="5.0000000"><ele>79.60</ele></trkpt>
    <trkpt lat="52.0162777" lon="5.0000000"><ele>80.20</ele></trkpt>
    <trkpt lat="52.0163227" lon="5.0000000"><ele>80.80</ele></trkpt>
    <trkpt lat="52.0163677" lon="5.0000000"><ele>81.40</ele></trkpt>
    <trkpt lat="52.0164126" lon="5.0000000"><ele>82.00</ele></trkpt>
    <trkpt lat="52.0164576" lon="5.0000000"><ele>82.60</ele></trkpt>
    <trkpt lat="52.0165026" lon="5.0000000"><ele>83.20</ele></trkpt>
    <trkpt lat="52.0165475" lon="5.0000000"><ele>83.80</ele></trkpt>
    <trkpt lat="52.0165925" lon="5.0000000"><ele>84.40</ele></trkpt>
    <trkpt lat="52.0166374" lon="5.0000000"><ele>85.00</ele></trkpt>
    <trkpt lat="52.0166824" lon="5.0000000"><ele>85.60</ele></trkpt>
    <trkpt lat="52.0167274" lon="5.0000000"><ele>86.20</ele></trkpt>
    <trkpt lat="52.0167723" lon="5.0000000"><ele>86.80</ele></trkpt>
    <trkpt lat="52.0168173" lon="5.0000000"><ele>87.40</ele></trkpt>
    <trkpt lat="52.0168623" lon="5.0000000"><ele>88.00</ele></trkpt>
    <trkpt lat="52.0169072" lon="5.0000000"><ele>88.60</ele></trkpt>
    <trkpt lat="52.0169522" lon="5.0000000"><ele>89.20</ele></trkpt>
    <trkpt lat="52.0169972" lon="5.0000000"><ele>89.80</ele></trkpt>
    <trkpt lat="52.0170421" lon="5.0000000"><ele>90.40</ele></trkpt>
    <trkpt lat="52.0170871" lon="5.0000000"><ele>91.00</ele></trkpt>
    <trkpt lat="52.0171321" lon="5.0000000"><ele>91.60</ele></trkpt>
    <trkpt lat="52.0171770" lon="5.0000000"><ele>92.20</ele></trkpt>
    <trkpt lat="52.0172220" lon="5.0000000"><ele>92.80</ele></trkpt>
    <trkpt lat="52.0172670" lon="5.0000000"><ele>93.40</ele></trkpt>
    <trkpt lat="52.0173119" lon="5.0000000"><ele>94.00</ele></trkpt>
    <trkpt lat="52.0173569" lon="5.0000000"><ele>94.60</ele></trkpt>
    <trkpt lat="52.0174019" lon="5.0000000"><ele>95.20</ele></trkpt>
    <trkpt lat="52.0174468" lon="5.0000000"><ele>95.80</ele></trkpt>
    <trkpt lat="52.0174918" lon="5.0000000"><ele>96.40</ele></trkpt>
    <trkpt lat="52.0175368" lon="5.0000000"><ele>97.00</ele></trkpt>
    <trkpt lat="52.0175817" lon="5.0000000"><ele>96.65</ele></trkpt>
    <trkpt lat="52.0176267" lon="5.0000000"><ele>96.30</ele></trkpt>
    <trkpt lat="52.0176717" lon="5.0000000"><ele>95.95</ele></trkpt>
    <trkpt lat="52.0177166" lon="5.0000000"><ele>95.60</ele></trkpt>
    <trkpt lat="52.0177616" lon="5.0000000"><ele>95.25</ele></trkpt>
    <trkpt lat="52.0178066" lon="5.0000000"><ele>94.90</ele></trkpt>
    <trkpt lat="52.0178515" lon="5.0000000"><ele>94.55</ele></trkpt>
    <trkpt lat="52.0178965" lon="5.0000000"><ele>94.20</ele></trkpt>
    <trkpt lat="52.0179415" lon="5.0000000"><ele>93.85</ele></trkpt>
    <trkpt lat="52.0179864" lon="5.0000000"><ele>93.50</ele></trkpt>
    <trkpt lat="52.0180314" lon="5.0000000"><ele>93.15</ele></trkpt>
    <trkpt lat="52.0180764" lon="5.0000000"><ele>92.80</ele></trkpt>
    <trkpt lat="52.0181213" lon="5.0000000"><ele>92.45</ele></trkpt>
    <trkpt lat="52.0181663" lon="5.0000000"><ele>92.10</ele></trkpt>
    <trkpt lat="52.0182113" lon="5.0000000"><ele>91.75</ele></trkpt>
    <trkpt lat="52.0182562" lon="5.0000000"><ele>91.40</ele></trkpt>
    <trkpt lat="52.0183012" lon="5.0000000"><ele>91.05</ele></trkpt>
    <trkpt lat="52.0183462" lon="5.0000000"><ele>90.70</ele></trkpt>
    <trkpt lat="52.0183911" lon="5.0000000"><ele>90.35</ele></trkpt>
    <trkpt lat="52.0184361" lon="5.0000000"><ele>90.00</ele></trkpt>
    <trkpt lat="52.0184811" lon="5.0000000"><ele>89.65</ele></trkpt>
    <trkpt lat="52.0185260" lon="5.0000000"><ele>89.30</ele></trkpt>
    <trkpt lat="52.0185710" lon="5.0000000"><ele>88.95</ele></trkpt>
    <trkpt lat="52.0186160" lon="5.0000000"><ele>88.60</ele></trkpt>
    <trkpt lat="52.0186609" lon="5.0000000"><ele>88.25</ele></trkpt>
    <trkpt lat="52.0187059" lon="5.0000000"><ele>87.90</ele></trkpt>
    <trkpt lat="52.0187509" lon="5.0000000"><ele>87.55</ele></trkpt>
    <trkpt lat="52.0187958" lon="5.0000000"><ele>87.20</ele></trkpt>
    <trkpt lat="52.0188408" lon="5.0000000"><ele>86.85</ele></trkpt>
    <trkpt lat="52.0188858" lon="5.0000000"><ele>86.50</ele></trkpt>
    <trkpt lat="52.0189307" lon="5.0000000"><ele>86.15</ele></trkpt>
    <trkpt lat="52.0189757" lon="5.0000000"><ele>85.80</ele></trkpt>
    <trkpt lat="52.0190207" lon="5.0000000"><ele>85.45</ele></trkpt>
    <trkpt lat="52.0190656" lon="5.0000000"><ele>85.10</ele></trkpt>
    <trkpt lat="52.0191106" lon="5.0000000"><ele>84.75</ele></trkpt>
    <trkpt lat="52.0191556" lon="5.0000000"><ele>84.40</ele></trkpt>
    <trkpt lat="52.0192005" lon="5.0000000"><ele>84.05</ele></trkpt>
    <trkpt lat="52.0192455" lon="5.0000000"><ele>83.70</ele></trkpt>
    <trkpt lat="52.0192904" lon="5.0000000"><ele>83.35</ele></trkpt>
    <trkpt lat="52.0193354" lon="5.0000000"><ele>83.00</ele></trkpt>
    <trkpt lat="52.0193804" lon="5.0000000"><ele>82.65</ele></trkpt>
    <trkpt lat="52.0194253" lon="5.0000000"><ele>82.30</ele></trkpt>
    <trkpt lat="52.0194703" lon="5.0000000"><ele>81.95</ele></trkpt>
    <trkpt lat="52.0195153" lon="5.0000000"><ele>81.60</ele></trkpt>
    <trkpt lat="52.0195602" lon="5.0000000"><ele>81.25</ele></trkpt>
    <trkpt lat="52.0196052" lon="5.0000000"><ele>80.90</ele></trkpt>
    <trkpt lat="52.0196502" lon="5.0000000"><ele>80.55</ele></trkpt>
    <trkpt lat="52.0196951" lon="5.0000000"><ele>80.20</ele></trkpt>
    <trkpt lat="52.0197401" lon="5.0000000"><ele>79.85</ele></trkpt>
    <trkpt lat="52.0197851" lon="5.0000000"><ele>79.50</ele></trkpt>
    <trkpt lat="52.0198300" lon="5.0000000"><ele>79.15</ele></trkpt>
    <trkpt lat="52.0198750" lon="5.0000000"><ele>78.80</ele></trkpt>
    <trkpt lat="52.0199200" lon="5.0000000"><ele>78.45</ele></trkpt>
    <trkpt lat="52.0199649" lon="5.0000000"><ele>78.10</ele></trkpt>
    <trkpt lat="52.0200099" lon="5.0000000"><ele>77.75</ele></trkpt>
    <trkpt lat="52.0200549" lon="5.0000000"><ele>77.40</ele></trkpt>
    <trkpt lat="52.0200998" lon="5.0000000"><ele>77.05</ele></trkpt>
    <trkpt lat="52.0201448" lon="5.0000000"><ele>76.70</ele></trkpt>
    <trkpt lat="52.0201898" lon="5.0000000"><ele>76.35</ele></trkpt>
    <trkpt lat="52.0202347" lon="5.0000000"><ele>76.00</ele></trkpt>
    <trkpt lat="52.0202797" lon="5.0000000"><ele>75.65</ele></trkpt>
    <trkpt lat="52.0203247" lon="5.0000000"><ele>75.30</ele></trkpt>
    <trkpt lat="52.0203696" lon="5.0000000"><ele>74.95</ele></trkpt>
    <trkpt lat="52.0204146" lon="5.0000000"><ele>74.60</ele></trkpt>
    <trkpt lat="52.0204596" lon="5.0000000"><ele>74.25</ele></trkpt>
    <trkpt lat="52.0205045" lon="5.0000000"><ele>73.90</ele></trkpt>
    <trkpt lat="52.0205495" lon="5.0000000"><ele>73.55</ele></trkpt>
    <trkpt lat="52.0205945" lon="5.0000000"><ele>73.20</ele></trkpt>
    <trkpt lat="52.0206394" lon="5.0000000"><ele>72.85</ele></trkpt>
    <trkpt lat="52.0206844" lon="5.0000000"><ele>72.50</ele></trkpt>
    <trkpt lat="52.0207294" lon="5.0000000"><ele>72.50</ele></trkpt>
    <trkpt lat="52.0207743" lon="5.0000000"><ele>72.50</ele></trkpt>
    <trkpt lat="52.0208193" lon="5.0000000"><ele>72.50</ele></trkpt>
    <trkpt lat="52.0208643" lon="5.0000000"><ele>72.50</ele></trkpt>
    <trkpt lat="52.0209092" lon="5.0000000"><ele>72.50</ele></trkpt>
    <trkpt lat="52.0209542" lon="5.0000000"><ele>72.50</ele></trkpt>
    <trkpt lat="52.0209992" lon="5.0000000"><ele>72.50</ele></trkpt>
    <trkpt lat="52.0210441" lon="5.0000000"><ele>72.50</ele></trkpt>
    <trkpt lat="52.0210891" lon="5.0000000"><ele>72.50</ele></trkpt>
    <trkpt lat="52.0211341" lon="5.0000000"><ele>72.50</ele></trkpt>
    <trkpt lat="52.0211790" lon="5.0000000"><ele>72.50</ele></trkpt>
    <trkpt lat="52.0212240" lon="5.0000000"><ele>72.50</ele></trkpt>
    <trkpt lat="52.0212690" lon="5.0000000"><ele>72.50</ele></trkpt>
    <trkpt lat="52.0213139" lon="5.0000000"><ele>72.50</ele></trkpt>
    <trkpt lat="52.0213589" lon="5.0000000"><ele>72.50</ele></trkpt>
    <trkpt lat="52.0214039" lon="5.0000000"><ele>72.50</ele></trkpt>
    <trkpt lat="52.0214488" lon="5.0000000"><ele>72.50</ele></trkpt>
    <trkpt lat="52.0214938" lon="5.0000000"><ele>72.50</ele></trkpt>
    <trkpt lat="52.0215388" lon="5.0000000"><ele>72.50</ele></trkpt>
    <trkpt lat="52.0215837" lon="5.0000000"><ele>72.50</ele></trkpt>
    <trkpt lat="52.0216287" lon="5.0000000"><ele>72.50</ele></trkpt>
    <trkpt lat="52.0216737" lon="5.0000000"><ele>72.50</ele></trkpt>
    <trkpt lat="52.0217186" lon="5.0000000"><ele>72.50</ele></trkpt>
    <trkpt lat="52.0217636" lon="5.0000000"><ele>72.50</ele></trkpt>
    <trkpt lat="52.0218085" lon="5.0000000"><ele>72.50</ele></trkpt>
    <trkpt lat="52.0218535" lon="5.0000000"><ele>72.50</ele></trkpt>
    <trkpt lat="52.0218985" lon="5.0000000"><ele>72.50</ele></trkpt>
    <trkpt lat="52.0219434" lon="5.0000000"><ele>72.50</ele></trkpt>
    <trkpt lat="52.0219884" lon="5.0000000"><ele>72.50</ele></trkpt>
    <trkpt lat="52.0220334" lon="5.0000000"><ele>72.50</ele></trkpt>
    <trkpt lat="52.0220783" lon="5.0000000"><ele>72.50</ele></trkpt>
    <trkpt lat="52.0221233" lon="5.0000000"><ele>72.50</ele></trkpt>
    <trkpt lat="52.0221683" lon="5.0000000"><ele>72.50</ele></trkpt>
    <trkpt lat="52.0222132" lon="5.0000000"><ele>72.50</ele></trkpt>
    <trkpt lat="52.0222582" lon="5.0000000"><ele>72.50</ele></trkpt>
    <trkpt lat="52.0223032" lon="5.0000000"><ele>72.50</ele></trkpt>
    <trkpt lat="52.0223481" lon="5.0000000"><ele>72.50</ele></trkpt>
    <trkpt lat="52.0223931" lon="5.0000000"><ele>72.50</ele></trkpt>
    <trkpt lat="52.0224381" lon="5.0000000"><ele>72.50</ele></trkpt>
    <trkpt lat="52.0224830" lon="5.0000000"><ele>72.50</ele></trkpt>
    <trkpt lat="52.0225280" lon="5.0000000"><ele>72.50</ele></trkpt>
    <trkpt lat="52.0225730" lon="5.0000000"><ele>72.50</ele></trkpt>
    <trkpt lat="52.0226179" lon="5.0000000"><ele>72.50</ele></trkpt>
    <trkpt lat="52.0226629" lon="5.0000000"><ele>72.50</ele></trkpt>
    <trkpt lat="52.0227079" lon="5.0000000"><ele>72.50</ele></trkpt>
    <trkpt lat="52.0227528" lon="5.0000000"><ele>72.50</ele></trkpt>
    <trkpt lat="52.0227978" lon="5.0000000"><ele>72.50</ele></trkpt>
    <trkpt lat="52.0228428" lon="5.0000000"><ele>72.50</ele></trkpt>
    <trkpt lat="52.0228877" lon="5.0000000"><ele>72.50</ele></trkpt>
    <trkpt lat="52.0229327" lon="5.0000000"><ele>72.50</ele></trkpt>
    <trkpt lat="52.0229777" lon="5.0000000"><ele>72.50</ele></trkpt>
    <trkpt lat="52.0230226" lon="5.0000000"><ele>72.50</ele></trkpt>
    <trkpt lat="52.0230676" lon="5.0000000"><ele>72.50</ele></trkpt>
    <trkpt lat="52.0231126" lon="5.0000000"><ele>72.50</ele></trkpt>
    <trkpt lat="52.0231575" lon="5.0000000"><ele>72.50</ele></trkpt>
    <trkpt lat="52.0232025" lon="5.0000000"><ele>72.50</ele></trkpt>
    <trkpt lat="52.0232475" lon="5.0000000"><ele>72.50</ele></trkpt>
    <trkpt lat="52.0232924" lon="5.0000000"><ele>72.50</ele></trkpt>
    <trkpt lat="52.0233374" lon="5.0000000"><ele>72.50</ele></trkpt>
    <trkpt lat="52.0233824" lon="5.0000000"><ele>72.50</ele></trkpt>
    <trkpt lat="52.0234273" lon="5.0000000"><ele>72.50</ele></trkpt>
    <trkpt lat="52.0234723" lon="5.0000000"><ele>72.50</ele></trkpt>
    <trkpt lat="52.0235173" lon="5.0000000"><ele>72.50</ele></trkpt>
    <trkpt lat="52.0235622" lon="5.0000000"><ele>72.50</ele></trkpt>
    <trkpt lat="52.0236072" lon="5.0000000"><ele>72.50</ele></trkpt>
    <trkpt lat="52.0236522" lon="5.0000000"><ele>72.50</ele></trkpt>
    <trkpt lat="52.0236971" lon="5.0000000"><ele>72.50</ele></trkpt>
    <trkpt lat="52.0237421" lon="5.0000000"><ele>72.50</ele></trkpt>
    <trkpt lat="52.0237871" lon="5.0000000"><ele>72.50</ele></trkpt>
    <trkpt lat="52.0238320" lon="5.0000000"><ele>72.50</ele></trkpt>
    <trkpt lat="52.0238770" lon="5.0000000"><ele>72.50</ele></trkpt>
    <trkpt lat="52.0239220" lon="5.0000000"><ele>72.50</ele></trkpt>
    <trkpt lat="52.0239669" lon="5.0000000"><ele>72.50</ele></trkpt>
    <trkpt lat="52.0240119" lon="5.0000000"><ele>72.50</ele></trkpt>
    <trkpt lat="52.0240569" lon="5.0000000"><ele>72.50</ele></trkpt>
    <trkpt lat="52.0241018" lon="5.0000000"><ele>72.50</ele></trkpt>
    <trkpt lat="52.0241468" lon="5.0000000"><ele>72.50</ele></trkpt>
    <trkpt lat="52.0241918" lon="5.0000000"><ele>72.50</ele></trkpt>
    <trkpt lat="52.0242367" lon="5.0000000"><ele>72.50</ele></trkpt>
    <trkpt lat="52.0242817" lon="5.0000000"><ele>72.50</ele></trkpt>
    <trkpt lat="52.0243266" lon="5.0000000"><ele>72.50</ele></trkpt>
    <trkpt lat="52.0243716" lon="5.0000000"><ele>72.50</ele></trkpt>
    <trkpt lat="52.0244166" lon="5.0000000"><ele>72.50</ele></trkpt>
    <trkpt lat="52.0244615" lon="5.0000000"><ele>72.50</ele></trkpt>
    <trkpt lat="52.0245065" lon="5.0000000"><ele>72.50</ele></trkpt>
    <trkpt lat="52.0245515" lon="5.0000000"><ele>72.50</ele></trkpt>
    <trkpt lat="52.0245964" lon="5.0000000"><ele>72.50</ele></trkpt>
    <trkpt lat="52.0246414" lon="5.0000000"><ele>72.50</ele></trkpt>
    <trkpt lat="52.0246864" lon="5.0000000"><ele>72.50</ele></trkpt>
    <trkpt lat="52.0247313" lon="5.0000000"><ele>72.50</ele></trkpt>
    <trkpt lat="52.0247763" lon="5.0000000"><ele>72.50</ele></trkpt>
    <trkpt lat="52.0248213" lon="5.0000000"><ele>72.50</ele></trkpt>
    <trkpt lat="52.0248662" lon="5.0000000"><ele>72.50</ele></trkpt>
    <trkpt lat="52.0249112" lon="5.0000000"><ele>72.50</ele></trkpt>
    <trkpt lat="52.0249562" lon="5.0000000"><ele>72.50</ele></trkpt>
    <trkpt lat="52.0250011" lon="5.0000000"><ele>72.50</ele></trkpt>
    <trkpt lat="52.0250461" lon="5.0000000"><ele>72.50</ele></trkpt>
    <trkpt lat="52.0250911" lon="5.0000000"><ele>72.50</ele></trkpt>
    <trkpt lat="52.0251360" lon="5.0000000"><ele>72.50</ele></trkpt>
    <trkpt lat="52.0251810" lon="5.0000000"><ele>72.50</ele></trkpt>
    <trkpt lat="52.0252260" lon="5.0000000"><ele>72.50</ele></trkpt>
    <trkpt lat="52.0252709" lon="5.0000000"><ele>72.50</ele></trkpt>
    <trkpt lat="52.0253159" lon="5.0000000"><ele>72.50</ele></trkpt>
    <trkpt lat="52.0253609" lon="5.0000000"><ele>72.50</ele></trkpt>
    <trkpt lat="52.0254058" lon="5.0000000"><ele>72.50</ele></trkpt>
    <trkpt lat="52.0254508" lon="5.0000000"><ele>72.50</ele></trkpt>
    <trkpt lat="52.0254958" lon="5.0000000"><ele>72.50</ele></trkpt>
    <trkpt lat="52.0255407" lon="5.0000000"><ele>72.50</ele></trkpt>
    <trkpt lat="52.0255857" lon="5.0000000"><ele>72.50</ele></trkpt>
    <trkpt lat="52.0256307" lon="5.0000000"><ele>72.50</ele></trkpt>
    <trkpt lat="52.0256756" lon="5.0000000"><ele>72.50</ele></trkpt>
    <trkpt lat="52.0257206" lon="5.0000000"><ele>72.50</ele></trkpt>
    <trkpt lat="52.0257656" lon="5.0000000"><ele>72.50</ele></trkpt>
    <trkpt lat="52.0258105" lon="5.0000000"><ele>72.50</ele></trkpt>
    <trkpt lat="52.0258555" lon="5.0000000"><ele>72.50</ele></trkpt>
    <trkpt lat="52.0259005" lon="5.0000000"><ele>72.50</ele></trkpt>
    <trkpt lat="52.0259454" lon="5.0000000"><ele>72.50</ele></trkpt>
    <trkpt lat="52.0259904" lon="5.0000000"><ele>72.50</ele></trkpt>
    <trkpt lat="52.0260354" lon="5.0000000"><ele>72.50</ele></trkpt>
    <trkpt lat="52.0260803" lon="5.0000000"><ele>72.50</ele></trkpt>
    <trkpt lat="52.0261253" lon="5.0000000"><ele>72.50</ele></trkpt>
    <trkpt lat="52.0261703" lon="5.0000000"><ele>72.50</ele></trkpt>
    <trkpt lat="52.0262152" lon="5.0000000"><ele>72.50</ele></trkpt>
    <trkpt lat="52.0262602" lon="5.0000000"><ele>72.50</ele></trkpt>
    <trkpt lat="52.0263052" lon="5.0000000"><ele>72.50</ele></trkpt>
    <trkpt lat="52.0263501" lon="5.0000000"><ele>72.50</ele></trkpt>
    <trkpt lat="52.0263951" lon="5.0000000"><ele>72.50</ele></trkpt>
    <trkpt lat="52.0264401" lon="5.0000000"><ele>72.50</ele></trkpt>
    <trkpt lat="52.0264850" lon="5.0000000"><ele>72.50</ele></trkpt>
    <trkpt lat="52.0265300" lon="5.0000000"><ele>72.50</ele></trkpt>
    <trkpt lat="52.0265750" lon="5.0000000"><ele>72.50</ele></trkpt>
    <trkpt lat="52.0266199" lon="5.0000000"><ele>72.50</ele></trkpt>
    <trkpt lat="52.0266649" lon="5.0000000"><ele>72.50</ele></trkpt>
    <trkpt lat="52.0267099" lon="5.0000000"><ele>72.50</ele></trkpt>
    <trkpt lat="52.0267548" lon="5.0000000"><ele>72.50</ele></trkpt>
    <trkpt lat="52.0267998" lon="5.0000000"><ele>72.50</ele></trkpt>
    <trkpt lat="52.0268447" lon="5.0000000"><ele>72.50</ele></trkpt>
    <trkpt lat="52.0268897" lon="5.0000000"><ele>72.50</ele></trkpt>
    <trkpt lat="52.0269347" lon="5.0000000"><ele>72.50</ele></trkpt>
    <trkpt lat="52.0269796" lon="5.0000000"><ele>72.50</ele></trkpt>
  </trkseg></trk>
</gpx>
